<?xml version='1.0' encoding='UTF-8'?>
<gpx xmlns="http://www.topografix.com/GPX/1/1" xmlns:xsi="http://www.w3.org/2001/XMLSchema-instance" creator="Garmin Connect" version="1.1" xsi:schemaLocation="http://www.topografix.com/GPX/1/1 http://www.topografix.com/GPX/11.xsd">
  <metadata>
    <name>TRHameDay7Riemukaarelle-Eiffel-Velodrome-Kyriad Paris Est</name>
    <link href="connect.garmin.com">
      <text>Garmin Connect</text>
    </link>
    <time>2026-06-28T19:07:35.000Z</time>
  </metadata>
  <wpt lat="49.28861" lon="2.49973">
    <ele>0.0</ele>
    <name>3 Avenue Des Po</name>
    <cmt>generic</cmt>
    <type>GENERIC</type>
  </wpt>
  <wpt lat="49.025036" lon="2.297431">
    <ele>0.0</ele>
    <name>Kahvia</name>
    <cmt>coffee</cmt>
    <type>FOOD</type>
  </wpt>
  <wpt lat="48.87502" lon="2.29468">
    <ele>0.0</ele>
    <name>Place Charles d</name>
    <cmt>generic</cmt>
    <type>GENERIC</type>
  </wpt>
  <wpt lat="48.85829" lon="2.29446">
    <ele>0.0</ele>
    <name>5 Avenue Anatol</name>
    <cmt>generic</cmt>
    <type>GENERIC</type>
  </wpt>
  <trk>
    <name>TRHameDay7Riemukaarelle-Eiffel-Velodrome-Kyriad Paris Est</name>
    <trkseg>
      <trkpt lat="49.28860989399254" lon="2.499729869887233">
        </trkpt>
      <trkpt lat="49.288759930059314" lon="2.5015099346637726">
        </trkpt>
      <trkpt lat="49.286466306075454" lon="2.5037903990596533">
        </trkpt>
      <trkpt lat="49.28392658941448" lon="2.503733318299055">
        </trkpt>
      <trkpt lat="49.28159994073212" lon="2.501389989629388">
        </trkpt>
      <trkpt lat="49.28033636882901" lon="2.498312657698989">
        </trkpt>
      <trkpt lat="49.2790799215436" lon="2.4953799974173307">
        </trkpt>
      <trkpt lat="49.27809999324381" lon="2.491399934515357">
        </trkpt>
      <trkpt lat="49.278169982135296" lon="2.4899899307638407">
        </trkpt>
      <trkpt lat="49.27684991620481" lon="2.4881699681282043">
        </trkpt>
      <trkpt lat="49.275609981268644" lon="2.4846099223941565">
        </trkpt>
      <trkpt lat="49.27390996366739" lon="2.4817699659615755">
        </trkpt>
      <trkpt lat="49.27132984623313" lon="2.481414992362261">
        </trkpt>
      <trkpt lat="49.2692730948329" lon="2.480872767046094">
        </trkpt>
      <trkpt lat="49.26753971725702" lon="2.4765159375965595">
        </trkpt>
      <trkpt lat="49.265973307192326" lon="2.473523262888193">
        </trkpt>
      <trkpt lat="49.26455995067954" lon="2.4735799245536327">
        </trkpt>
      <trkpt lat="49.262179993093014" lon="2.4740799888968468">
        </trkpt>
      <trkpt lat="49.26006490364671" lon="2.475039968267083">
        </trkpt>
      <trkpt lat="49.258584743365645" lon="2.4767953902482986">
        </trkpt>
      <trkpt lat="49.25728999078274" lon="2.4785999301820993">
        </trkpt>
      <trkpt lat="49.254319947212934" lon="2.4780232552438974">
        </trkpt>
      <trkpt lat="49.25213998183608" lon="2.47700996696949">
        </trkpt>
      <trkpt lat="49.249659944325686" lon="2.474379977211356">
        </trkpt>
      <trkpt lat="49.24723472446203" lon="2.471874710172415">
        </trkpt>
      <trkpt lat="49.2461399640888" lon="2.470309976488352">
        </trkpt>
      <trkpt lat="49.244629964232445" lon="2.4691299721598625">
        </trkpt>
      <trkpt lat="49.24325994215906" lon="2.4678299389779568">
        </trkpt>
      <trkpt lat="49.2402199935168" lon="2.4655799847096205">
        </trkpt>
      <trkpt lat="49.238549983128905" lon="2.4635699205100536">
        </trkpt>
      <trkpt lat="49.23661636188626" lon="2.461323067545891">
        </trkpt>
      <trkpt lat="49.23417999409139" lon="2.4595299270004034">
        </trkpt>
      <trkpt lat="49.23248986713588" lon="2.4586932454258204">
        </trkpt>
      <trkpt lat="49.23118991777301" lon="2.4582599848508835">
        </trkpt>
      <trkpt lat="49.228689931333065" lon="2.4568399228155613">
        </trkpt>
      <trkpt lat="49.225809993222356" lon="2.4560050014406443">
        </trkpt>
      <trkpt lat="49.224069993942976" lon="2.45573996566236">
        </trkpt>
      <trkpt lat="49.2212799936533" lon="2.454739920794964">
        </trkpt>
      <trkpt lat="49.21900296583772" lon="2.4527829978615046">
        </trkpt>
      <trkpt lat="49.21745994128287" lon="2.450359957292676">
        </trkpt>
      <trkpt lat="49.21587995253503" lon="2.449439959600568">
        </trkpt>
      <trkpt lat="49.21353637240827" lon="2.447196375578642">
        </trkpt>
      <trkpt lat="49.21112992800772" lon="2.445069970563054">
        </trkpt>
      <trkpt lat="49.21062994748354" lon="2.4444999173283577">
        </trkpt>
      <trkpt lat="49.20822995714843" lon="2.4426499474793673">
        </trkpt>
      <trkpt lat="49.205569960176945" lon="2.440189942717552">
        </trkpt>
      <trkpt lat="49.20317986048758" lon="2.4378449376672506">
        </trkpt>
      <trkpt lat="49.20040997676551" lon="2.4351299554109573">
        </trkpt>
      <trkpt lat="49.1994799207896" lon="2.4316199496388435">
        </trkpt>
      <trkpt lat="49.20058021321893" lon="2.4269890319556">
        </trkpt>
      <trkpt lat="49.19939995743334" lon="2.4235799442976713">
        </trkpt>
      <trkpt lat="49.198799980804324" lon="2.4198999535292387">
        </trkpt>
      <trkpt lat="49.197379918769" lon="2.417509937658906">
        </trkpt>
      <trkpt lat="49.194829976186156" lon="2.418126594275236">
        </trkpt>
      <trkpt lat="49.19209496118128" lon="2.4179349839687347">
        </trkpt>
      <trkpt lat="49.190339958295226" lon="2.415734985843301">
        </trkpt>
      <trkpt lat="49.18925995007157" lon="2.4156899750232697">
        </trkpt>
      <trkpt lat="49.186664996668696" lon="2.4151849653571844">
        </trkpt>
      <trkpt lat="49.184449994936585" lon="2.4143099784851074">
        </trkpt>
      <trkpt lat="49.18422980234027" lon="2.410859065130353">
        </trkpt>
      <trkpt lat="49.183809868991375" lon="2.406579265370965">
        </trkpt>
      <trkpt lat="49.18363996781409" lon="2.4054899532347918">
        </trkpt>
      <trkpt lat="49.182699769735336" lon="2.4016657937318087">
        </trkpt>
      <trkpt lat="49.181746412068605" lon="2.3979659378528595">
        </trkpt>
      <trkpt lat="49.1806361451745" lon="2.3945355601608753">
        </trkpt>
      <trkpt lat="49.17903997935355" lon="2.3907599318772554">
        </trkpt>
      <trkpt lat="49.178329948335886" lon="2.388679962605238">
        </trkpt>
      <trkpt lat="49.17678994126618" lon="2.388889929279685">
        </trkpt>
      <trkpt lat="49.17334992438555" lon="2.3886399809271097">
        </trkpt>
      <trkpt lat="49.172013346105814" lon="2.3885399848222733">
        </trkpt>
      <trkpt lat="49.16876334697008" lon="2.3882999271154404">
        </trkpt>
      <trkpt lat="49.16657994501293" lon="2.3878699354827404">
        </trkpt>
      <trkpt lat="49.164923345670104" lon="2.388019971549511">
        </trkpt>
      <trkpt lat="49.16256995871663" lon="2.3875299654901028">
        </trkpt>
      <trkpt lat="49.16150998324156" lon="2.387359980493784">
        </trkpt>
      <trkpt lat="49.1590332146734" lon="2.3857965879142284">
        </trkpt>
      <trkpt lat="49.15616995655" lon="2.3839399963617325">
        </trkpt>
      <trkpt lat="49.15318977087736" lon="2.381993131712079">
        </trkpt>
      <trkpt lat="49.15063647553325" lon="2.3803232051432133">
        </trkpt>
      <trkpt lat="49.14800296537578" lon="2.3780563194304705">
        </trkpt>
      <trkpt lat="49.145743288099766" lon="2.376173324882984">
        </trkpt>
      <trkpt lat="49.14283996447921" lon="2.3751099966466427">
        </trkpt>
      <trkpt lat="49.139649979770184" lon="2.3739699739962816">
        </trkpt>
      <trkpt lat="49.13777997717261" lon="2.372979987412691">
        </trkpt>
      <trkpt lat="49.13586496375501" lon="2.3726049810647964">
        </trkpt>
      <trkpt lat="49.132779920473695" lon="2.3714699875563383">
        </trkpt>
      <trkpt lat="49.130009952932596" lon="2.3703999537974596">
        </trkpt>
      <trkpt lat="49.128609923645854" lon="2.370319990441203">
        </trkpt>
      <trkpt lat="49.12597993388772" lon="2.369869966059923">
        </trkpt>
      <trkpt lat="49.12445995956659" lon="2.3681799229234457">
        </trkpt>
      <trkpt lat="49.12369997240603" lon="2.367619927972555">
        </trkpt>
      <trkpt lat="49.120769994333386" lon="2.3679999634623528">
        </trkpt>
      <trkpt lat="49.1181599535048" lon="2.3671099729835987">
        </trkpt>
      <trkpt lat="49.11565996706486" lon="2.3654699698090553">
        </trkpt>
      <trkpt lat="49.11359994672239" lon="2.3654899187386036">
        </trkpt>
      <trkpt lat="49.111289978027344" lon="2.3651299998164177">
        </trkpt>
      <trkpt lat="49.10944000817835" lon="2.36711491830647">
        </trkpt>
      <trkpt lat="49.10772657953203" lon="2.3669865913689137">
        </trkpt>
      <trkpt lat="49.10534997470677" lon="2.3661399353295565">
        </trkpt>
      <trkpt lat="49.10379999317229" lon="2.3652699775993824">
        </trkpt>
      <trkpt lat="49.10100999288261" lon="2.363839941099286">
        </trkpt>
      <trkpt lat="49.09810993820429" lon="2.3625599406659603">
        </trkpt>
      <trkpt lat="49.09524994902313" lon="2.361179944127798">
        </trkpt>
      <trkpt lat="49.09374992363155" lon="2.3604699969291687">
        </trkpt>
      <trkpt lat="49.09084995277226" lon="2.3592499271035194">
        </trkpt>
      <trkpt lat="49.08807663246989" lon="2.3579899594187737">
        </trkpt>
      <trkpt lat="49.085099967196584" lon="2.3566249664872885">
        </trkpt>
      <trkpt lat="49.08226327970624" lon="2.355336584150791">
        </trkpt>
      <trkpt lat="49.08022999763489" lon="2.3533799964934587">
        </trkpt>
      <trkpt lat="49.07932994887233" lon="2.3519899416714907">
        </trkpt>
      <trkpt lat="49.07695619389415" lon="2.3494327906519175">
        </trkpt>
      <trkpt lat="49.07422620803118" lon="2.346142726019025">
        </trkpt>
      <trkpt lat="49.07339992001653" lon="2.3453399911522865">
        </trkpt>
      <trkpt lat="49.071799982339144" lon="2.347619952633977">
        </trkpt>
      <trkpt lat="49.06882314942777" lon="2.3493300285190344">
        </trkpt>
      <trkpt lat="49.0659100189805" lon="2.3502733279019594">
        </trkpt>
      <trkpt lat="49.06332998536527" lon="2.3497599363327026">
        </trkpt>
      <trkpt lat="49.060759926214814" lon="2.349599925801158">
        </trkpt>
      <trkpt lat="49.05836999416351" lon="2.3493499774485826">
        </trkpt>
      <trkpt lat="49.05780999921262" lon="2.345469994470477">
        </trkpt>
      <trkpt lat="49.05634995549917" lon="2.343169916421175">
        </trkpt>
      <trkpt lat="49.05390637926757" lon="2.3411596845835447">
        </trkpt>
      <trkpt lat="49.05159993097186" lon="2.3388699162751436">
        </trkpt>
      <trkpt lat="49.050149945542216" lon="2.33539997600019">
        </trkpt>
      <trkpt lat="49.04863994568586" lon="2.333289999514818">
        </trkpt>
      <trkpt lat="49.047814747318625" lon="2.3322846740484238">
        </trkpt>
      <trkpt lat="49.046804727986455" lon="2.330784732475877">
        </trkpt>
      <trkpt lat="49.045269917696714" lon="2.32740992680192">
        </trkpt>
      <trkpt lat="49.04390970245004" lon="2.323504462838173">
        </trkpt>
      <trkpt lat="49.04276993125677" lon="2.320829965174198">
        </trkpt>
      <trkpt lat="49.04197993688285" lon="2.3198499530553818">
        </trkpt>
      <trkpt lat="49.04032476246357" lon="2.3166245967149734">
        </trkpt>
      <trkpt lat="49.038329953327775" lon="2.3135499469935894">
        </trkpt>
      <trkpt lat="49.03608997352421" lon="2.311709951609373">
        </trkpt>
      <trkpt lat="49.033219926059246" lon="2.3106699250638485">
        </trkpt>
      <trkpt lat="49.031369956210256" lon="2.30832994915545">
        </trkpt>
      <trkpt lat="49.02916995808482" lon="2.3098299745470285">
        </trkpt>
      <trkpt lat="49.02761997655034" lon="2.311899969354272">
        </trkpt>
      <trkpt lat="49.026059936732054" lon="2.3108799755573273">
        </trkpt>
      <trkpt lat="49.02553640305996" lon="2.306727832183242">
        </trkpt>
      <trkpt lat="49.02524999342859" lon="2.3024799674749374">
        </trkpt>
      <trkpt lat="49.02539994567633" lon="2.298609958961606">
        </trkpt>
      <trkpt lat="49.02381995692849" lon="2.2960099764168262">
        </trkpt>
      <trkpt lat="49.02164996601641" lon="2.293999996036291">
        </trkpt>
      <trkpt lat="49.019959922879934" lon="2.291799997910857">
        </trkpt>
      <trkpt lat="49.01785975322127" lon="2.2898096311837435">
        </trkpt>
      <trkpt lat="49.01534995995462" lon="2.288139956071973">
        </trkpt>
      <trkpt lat="49.014687119051814" lon="2.285562017932534">
        </trkpt>
      <trkpt lat="49.0128399990499" lon="2.2838499303907156">
        </trkpt>
      <trkpt lat="49.009986547753215" lon="2.282779896631837">
        </trkpt>
      <trkpt lat="49.0073399618268" lon="2.281229915097356">
        </trkpt>
      <trkpt lat="49.00505991652608" lon="2.281529987230897">
        </trkpt>
      <trkpt lat="49.003589982166886" lon="2.281109970062971">
        </trkpt>
      <trkpt lat="49.00152317248285" lon="2.2794464975595474">
        </trkpt>
      <trkpt lat="48.99904992431402" lon="2.277509942650795">
        </trkpt>
      <trkpt lat="48.996313232928514" lon="2.2764899488538504">
        </trkpt>
      <trkpt lat="48.99476995691657" lon="2.275249930098653">
        </trkpt>
      <trkpt lat="48.99349993094802" lon="2.2745099756866693">
        </trkpt>
      <trkpt lat="48.9916099794209" lon="2.2747199423611164">
        </trkpt>
      <trkpt lat="48.99055000394583" lon="2.2749399673193693">
        </trkpt>
      <trkpt lat="48.98764659650624" lon="2.2737033013254404">
        </trkpt>
      <trkpt lat="48.98488660342991" lon="2.272516591474414">
        </trkpt>
      <trkpt lat="48.98206986486912" lon="2.271274896338582">
        </trkpt>
      <trkpt lat="48.98017999716103" lon="2.2702799644321203">
        </trkpt>
      <trkpt lat="48.97896487265825" lon="2.268804917111993">
        </trkpt>
      <trkpt lat="48.97679999470711" lon="2.2671399358659983">
        </trkpt>
      <trkpt lat="48.97415994666517" lon="2.265353249385953">
        </trkpt>
      <trkpt lat="48.97316996008158" lon="2.2632399201393127">
        </trkpt>
      <trkpt lat="48.97110993973911" lon="2.26303992792964">
        </trkpt>
      <trkpt lat="48.96869662217796" lon="2.2628232557326555">
        </trkpt>
      <trkpt lat="48.965819953009486" lon="2.2616449277848005">
        </trkpt>
      <trkpt lat="48.964269971475005" lon="2.260899944230914">
        </trkpt>
      <trkpt lat="48.96137318573892" lon="2.2591565921902657">
        </trkpt>
      <trkpt lat="48.96006996743381" lon="2.258219998329878">
        </trkpt>
      <trkpt lat="48.957553217187524" lon="2.256713267415762">
        </trkpt>
      <trkpt lat="48.954819878563285" lon="2.2550132498145103">
        </trkpt>
      <trkpt lat="48.95264997147024" lon="2.253969954326749">
        </trkpt>
      <trkpt lat="48.94997991621494" lon="2.2536099515855312">
        </trkpt>
      <trkpt lat="48.94758998416364" lon="2.2538566309958696">
        </trkpt>
      <trkpt lat="48.94442992284894" lon="2.254889952018857">
        </trkpt>
      <trkpt lat="48.94291606731713" lon="2.25458568893373">
        </trkpt>
      <trkpt lat="48.94077298231423" lon="2.2544836811721325">
        </trkpt>
      <trkpt lat="48.93845999613404" lon="2.2569799795746803">
        </trkpt>
      <trkpt lat="48.936189925298095" lon="2.2571799717843533">
        </trkpt>
      <trkpt lat="48.93353998661041" lon="2.255489928647876">
        </trkpt>
      <trkpt lat="48.93048997968435" lon="2.255129925906658">
        </trkpt>
      <trkpt lat="48.927843226119876" lon="2.2538365982472897">
        </trkpt>
      <trkpt lat="48.925379952415824" lon="2.2528399899601936">
        </trkpt>
      <trkpt lat="48.92317995429039" lon="2.252399940043688">
        </trkpt>
      <trkpt lat="48.92122998833656" lon="2.252649972215295">
        </trkpt>
      <trkpt lat="48.91803665086627" lon="2.2526966594159603">
        </trkpt>
      <trkpt lat="48.91490994952619" lon="2.252859938889742">
        </trkpt>
      <trkpt lat="48.91241490840912" lon="2.2538950201123953">
        </trkpt>
      <trkpt lat="48.90959993004799" lon="2.255079969763756">
        </trkpt>
      <trkpt lat="48.90661999583244" lon="2.2556799463927746">
        </trkpt>
      <trkpt lat="48.90503313392401" lon="2.2561767417937517">
        </trkpt>
      <trkpt lat="48.902689972892404" lon="2.2585299611091614">
        </trkpt>
      <trkpt lat="48.900459967553616" lon="2.260689977556467">
        </trkpt>
      <trkpt lat="48.897983115166426" lon="2.263206811621785">
        </trkpt>
      <trkpt lat="48.89593977481127" lon="2.265135068446398">
        </trkpt>
      <trkpt lat="48.894099947065115" lon="2.2669999580830336">
        </trkpt>
      <trkpt lat="48.8920199777931" lon="2.269079927355051">
        </trkpt>
      <trkpt lat="48.8898060657084" lon="2.272057682275772">
        </trkpt>
      <trkpt lat="48.88794997707009" lon="2.2756299655884504">
        </trkpt>
      <trkpt lat="48.886769972741604" lon="2.2791599202901125">
        </trkpt>
      <trkpt lat="48.88405993580818" lon="2.281499980017543">
        </trkpt>
      <trkpt lat="48.88142994605005" lon="2.2818899899721146">
        </trkpt>
      <trkpt lat="48.8808399438858" lon="2.2842599730938673">
        </trkpt>
      <trkpt lat="48.87981282547116" lon="2.2887685988098383">
        </trkpt>
      <trkpt lat="48.878872878849506" lon="2.292905068024993">
        </trkpt>
      <trkpt lat="48.87723991647363" lon="2.2944499365985394">
        </trkpt>
      <trkpt lat="48.875019969418645" lon="2.2946799360215664">
        </trkpt>
      <trkpt lat="48.87498996220529" lon="2.2963299974799156">
        </trkpt>
      <trkpt lat="48.87314493767917" lon="2.297039944678545">
        </trkpt>
      <trkpt lat="48.87072994373739" lon="2.297439929097891">
        </trkpt>
      <trkpt lat="48.8682599645108" lon="2.2989999689161777">
        </trkpt>
      <trkpt lat="48.865159917622805" lon="2.2998399194329977">
        </trkpt>
      <trkpt lat="48.863663328811526" lon="2.3015399370342493">
        </trkpt>
      <trkpt lat="48.862349884584546" lon="2.3002142552286386">
        </trkpt>
      <trkpt lat="48.86138982139528" lon="2.2966745775192976">
        </trkpt>
      <trkpt lat="48.859584694728255" lon="2.2938096430152655">
        </trkpt>
      <trkpt lat="48.857489973306656" lon="2.2909899707883596">
        </trkpt>
      <trkpt lat="48.857489973306656" lon="2.292979918420315">
        </trkpt>
      <trkpt lat="48.85828994214535" lon="2.294459994882345">
        </trkpt>
      <trkpt lat="48.85957991704345" lon="2.294829972088337">
        </trkpt>
      <trkpt lat="48.8612799346447" lon="2.2969699557870626">
        </trkpt>
      <trkpt lat="48.86226992122829" lon="2.2995899710804224">
        </trkpt>
      <trkpt lat="48.86247997172177" lon="2.303009955212474">
        </trkpt>
      <trkpt lat="48.86258332058787" lon="2.3080590460449457">
        </trkpt>
      <trkpt lat="48.86286998167634" lon="2.311739958822727">
        </trkpt>
      <trkpt lat="48.86296997778118" lon="2.3162699583917856">
        </trkpt>
      <trkpt lat="48.86269999668002" lon="2.3190999403595924">
        </trkpt>
      <trkpt lat="48.86174999177456" lon="2.3221999872475863">
        </trkpt>
      <trkpt lat="48.8606599252671" lon="2.3260699957609177">
        </trkpt>
      <trkpt lat="48.85949995368719" lon="2.329639932140708">
        </trkpt>
      <trkpt lat="48.85835951194167" lon="2.333431737497449">
        </trkpt>
      <trkpt lat="48.85753992944956" lon="2.338069947436452">
        </trkpt>
      <trkpt lat="48.85588995181024" lon="2.3408299405127764">
        </trkpt>
      <trkpt lat="48.85384996421635" lon="2.3442599829286337">
        </trkpt>
      <trkpt lat="48.85251950472593" lon="2.3480241280049086">
        </trkpt>
      <trkpt lat="48.851129952818155" lon="2.3514299467206">
        </trkpt>
      <trkpt lat="48.84975272230804" lon="2.3558050487190485">
        </trkpt>
      <trkpt lat="48.84795991703868" lon="2.3595099337399006">
        </trkpt>
      <trkpt lat="48.84586972184479" lon="2.3626253195106983">
        </trkpt>
      <trkpt lat="48.84428998455405" lon="2.3648299276828766">
        </trkpt>
      <trkpt lat="48.84293974377215" lon="2.3663802444934845">
        </trkpt>
      <trkpt lat="48.84083622135222" lon="2.3692938778549433">
        </trkpt>
      <trkpt lat="48.838769579306245" lon="2.372117154300213">
        </trkpt>
      <trkpt lat="48.837730223312974" lon="2.3742804396897554">
        </trkpt>
      <trkpt lat="48.83909999392927" lon="2.376899952068925">
        </trkpt>
      <trkpt lat="48.840189976617694" lon="2.379079917445779">
        </trkpt>
      <trkpt lat="48.83990993723273" lon="2.382189938798547">
        </trkpt>
      <trkpt lat="48.83907476440072" lon="2.386785987764597">
        </trkpt>
      <trkpt lat="48.838253170251846" lon="2.38999349065125">
        </trkpt>
      <trkpt lat="48.83605979382992" lon="2.3921267688274384">
        </trkpt>
      <trkpt lat="48.83398996666074" lon="2.394229955971241">
        </trkpt>
      <trkpt lat="48.83213999681175" lon="2.397109977900982">
        </trkpt>
      <trkpt lat="48.830719934776425" lon="2.399289943277836">
        </trkpt>
      <trkpt lat="48.82961980998516" lon="2.402390744537115">
        </trkpt>
      <trkpt lat="48.82865999825299" lon="2.404699958860874">
        </trkpt>
      <trkpt lat="48.826324716210365" lon="2.407910395413637">
        </trkpt>
      <trkpt lat="48.82490985095501" lon="2.4114756379276514">
        </trkpt>
      <trkpt lat="48.82476559840143" lon="2.4121868424117565">
        </trkpt>
      <trkpt lat="48.82476568222046" lon="2.4159622192382812">
        </trkpt>
      <trkpt lat="48.82435781881213" lon="2.418437898159027">
        </trkpt>
      <trkpt lat="48.82404685020447" lon="2.421316998079419">
        </trkpt>
      <trkpt lat="48.822619915008545" lon="2.4231826420873404">
        </trkpt>
      <trkpt lat="48.819951955229044" lon="2.423286410048604">
        </trkpt>
      <trkpt lat="48.818414295092225" lon="2.424384355545044">
        </trkpt>
      <trkpt lat="48.81815219298005" lon="2.4220152106136084">
        </trkpt>
    </trkseg>
  </trk>
</gpx>