<?xml version='1.0' encoding='UTF-8'?>
<gpx xmlns="http://www.topografix.com/GPX/1/1" xmlns:xsi="http://www.w3.org/2001/XMLSchema-instance" version="1.1" creator="http://ridewithgps.com/" xsi:schemaLocation="http://www.topografix.com/GPX/1/1 http://www.topografix.com/GPX/1/1/gpx.xsd http://www.cluetrust.com/XML/GPXDATA/1/0 http://www.cluetrust.com/Schemas/gpxdata10.xsd">
  <metadata>
    <name>day4-Baarlo-MurdeHuy-Namur-Kolenspoor2-cycleway-24km</name>
    <link href="https://ridewithgps.com/routes/55517551">
      <text>day4-Baarlo-MurdeHuy-Namur-Kolenspoor2-cycleway-24km</text>
    </link>
    <time>2026-06-06T11:43:10Z</time>
  </metadata>
  <wpt lat="51.325307" lon="6.082586">
    <name>Raayerveldlaan 6</name>
    <cmt>generic</cmt>
    <sym>Dot</sym>
    <type>generic</type>
  </wpt>
  <wpt lat="50.485184" lon="4.796613">
    <name>Avenue D'ecolys 2</name>
    <cmt>generic</cmt>
    <sym>Dot</sym>
    <type>generic</type>
  </wpt>
  <wpt lat="51.23335237067627" lon="5.961742038770524">
    <name>Taka-auto</name>
    <cmt>generic</cmt>
    <desc>pyörät pyörätielle taka-auto ei takana, taka-auto kääntyy oikealle Burgermeester ja sitten vasemmalle Op Den Dries ja sitten taas oikealle Napoleonsweg ja pääsee taas pyörien taakse</desc>
    <sym>Dot</sym>
    <type>generic</type>
  </wpt>
  <wpt lat="51.23209716213506" lon="5.959939999999591">
    <name>Taka-auto</name>
    <cmt>generic</cmt>
    <desc>Taka-auto seuraa taas pyöriä</desc>
    <sym>Dot</sym>
    <type>generic</type>
  </wpt>
  <wpt lat="51.21203130854183" lon="5.918339005595037">
    <name>Kahvi</name>
    <cmt>coffee</cmt>
    <desc>biotauko ja juomahuolto / kahvi</desc>
    <sym>Dot</sym>
    <type>food</type>
  </wpt>
  <wpt lat="51.11844107337201" lon="5.8003725161995545">
    <name>Kahvi II / bio</name>
    <cmt>restroom</cmt>
    <desc>biotauko ja juomahuolto / kahvi II</desc>
    <sym>Dot</sym>
    <type>toilet</type>
  </wpt>
  <wpt lat="51.09374783408575" lon="5.777119486431266">
    <name>Taka-auto</name>
    <cmt>generic</cmt>
    <desc>Käännös oikealle Kolenspoor pyörätielle 37,2km taka-auto ei voi seurata vaan jatkaa N78b tiellä</desc>
    <sym>Dot</sym>
    <type>generic</type>
  </wpt>
  <wpt lat="50.99026841750632" lon="5.572741600725961">
    <name>Taka-auto</name>
    <cmt>generic</cmt>
    <desc>Pyörät pois Kolenspoor baanalta 57km kohdalla taka-auto seuraa taas</desc>
    <sym>Dot</sym>
    <type>generic</type>
  </wpt>
  <wpt lat="50.92615889226941" lon="5.552377061297826">
    <name>Ruokaa</name>
    <cmt>food</cmt>
    <desc>Ruokahuolto I, juomahuolto, biotauko</desc>
    <sym>Dot</sym>
    <type>food</type>
  </wpt>
  <wpt lat="50.809359246405286" lon="5.466373283063777">
    <name>Ruoka II</name>
    <cmt>food</cmt>
    <desc>Ruoka2 Juomahuolto bio (varapaikka ruokahuollolle)</desc>
    <sym>Dot</sym>
    <type>food</type>
  </wpt>
  <wpt lat="50.71753127387808" lon="5.413075616685563">
    <name>Ruoka III</name>
    <cmt>food</cmt>
    <desc>Ruoka 3 varapaikka jos kaks edellistä ei onnistu</desc>
    <sym>Dot</sym>
    <type>food</type>
  </wpt>
  <wpt lat="50.6900502777757" lon="5.3956629687971525">
    <name>Bio Juoma</name>
    <cmt>restroom</cmt>
    <desc>Bio juomahuolto vara jos edellinen ei onnistu</desc>
    <sym>Dot</sym>
    <type>toilet</type>
  </wpt>
  <wpt lat="50.60106134605153" lon="5.346059825109157">
    <name>Juomaa</name>
    <cmt>water</cmt>
    <desc>Juomahuolto ennen Mur de Huy nousua 110km kohdalla</desc>
    <sym>Dot</sym>
    <type>water</type>
  </wpt>
  <wpt lat="50.512863930594406" lon="5.254105913070601">
    <name>Mur de Huy juhla</name>
    <cmt>coffee</cmt>
    <desc>Mur de Huipulla kahvia ja pullaa, joku juhla</desc>
    <sym>Dot</sym>
    <type>food</type>
  </wpt>
  <wpt lat="50.591287524601" lon="4.913887167711506">
    <name>Bio juomaa</name>
    <cmt>restroom</cmt>
    <desc>Bio Juomahuolto</desc>
    <sym>Dot</sym>
    <type>toilet</type>
  </wpt>
  <trk>
    <name>day4-Baarlo-MurdeHuy-Namur-Kolenspoor2-cycleway-24km</name>
    <trkseg>
      <trkpt lat="51.3253" lon="6.08277">
        </trkpt>
      <trkpt lat="51.32504" lon="6.08111">
        </trkpt>
      <trkpt lat="51.32714" lon="6.08062">
        </trkpt>
      <trkpt lat="51.32451" lon="6.0836">
        </trkpt>
      <trkpt lat="51.32008" lon="6.0786">
        </trkpt>
      <trkpt lat="51.31412" lon="6.07209">
        </trkpt>
      <trkpt lat="51.30752" lon="6.06474">
        </trkpt>
      <trkpt lat="51.30346" lon="6.06003">
        </trkpt>
      <trkpt lat="51.29926" lon="6.05422">
        </trkpt>
      <trkpt lat="51.29481" lon="6.04558">
        </trkpt>
      <trkpt lat="51.29279" lon="6.04181">
        </trkpt>
      <trkpt lat="51.28788" lon="6.03239">
        </trkpt>
      <trkpt lat="51.2824" lon="6.02185">
        </trkpt>
      <trkpt lat="51.27816" lon="6.01376">
        </trkpt>
      <trkpt lat="51.27256" lon="6.00304">
        </trkpt>
      <trkpt lat="51.26767" lon="5.99376">
        </trkpt>
      <trkpt lat="51.26399" lon="5.98678">
        </trkpt>
      <trkpt lat="51.25779" lon="5.98173">
        </trkpt>
      <trkpt lat="51.25391" lon="5.97843">
        </trkpt>
      <trkpt lat="51.24587" lon="5.97199">
        </trkpt>
      <trkpt lat="51.24176" lon="5.96857">
        </trkpt>
      <trkpt lat="51.23565" lon="5.96365">
        </trkpt>
      <trkpt lat="51.23225" lon="5.96016">
        </trkpt>
      <trkpt lat="51.23046" lon="5.95662">
        </trkpt>
      <trkpt lat="51.2285" lon="5.95244">
        </trkpt>
      <trkpt lat="51.22392" lon="5.94311">
        </trkpt>
      <trkpt lat="51.22202" lon="5.93886">
        </trkpt>
      <trkpt lat="51.21647" lon="5.92726">
        </trkpt>
      <trkpt lat="51.2127" lon="5.91971">
        </trkpt>
      <trkpt lat="51.20917" lon="5.91236">
        </trkpt>
      <trkpt lat="51.20571" lon="5.90517">
        </trkpt>
      <trkpt lat="51.20143" lon="5.89633">
        </trkpt>
      <trkpt lat="51.19718" lon="5.8875">
        </trkpt>
      <trkpt lat="51.19483" lon="5.88221">
        </trkpt>
      <trkpt lat="51.19312" lon="5.87833">
        </trkpt>
      <trkpt lat="51.18782" lon="5.86605">
        </trkpt>
      <trkpt lat="51.18353" lon="5.85616">
        </trkpt>
      <trkpt lat="51.17875" lon="5.84519">
        </trkpt>
      <trkpt lat="51.17555" lon="5.83741">
        </trkpt>
      <trkpt lat="51.17226" lon="5.8301">
        </trkpt>
      <trkpt lat="51.16934" lon="5.82342">
        </trkpt>
      <trkpt lat="51.16628" lon="5.81639">
        </trkpt>
      <trkpt lat="51.15972" lon="5.81367">
        </trkpt>
      <trkpt lat="51.15151" lon="5.81086">
        </trkpt>
      <trkpt lat="51.14578" lon="5.80891">
        </trkpt>
      <trkpt lat="51.13497" lon="5.80524">
        </trkpt>
      <trkpt lat="51.12757" lon="5.80268">
        </trkpt>
      <trkpt lat="51.12111" lon="5.80095">
        </trkpt>
      <trkpt lat="51.11187" lon="5.79887">
        </trkpt>
      <trkpt lat="51.1025" lon="5.79687">
        </trkpt>
      <trkpt lat="51.09906" lon="5.7959">
        </trkpt>
      <trkpt lat="51.09955" lon="5.78849">
        </trkpt>
      <trkpt lat="51.09898" lon="5.78419">
        </trkpt>
      <trkpt lat="51.09764" lon="5.78101">
        </trkpt>
      <trkpt lat="51.09738" lon="5.78039">
        </trkpt>
      <trkpt lat="51.09559" lon="5.78099">
        </trkpt>
      <trkpt lat="51.0941" lon="5.77547">
        </trkpt>
      <trkpt lat="51.08848" lon="5.76237">
        </trkpt>
      <trkpt lat="51.08201" lon="5.74775">
        </trkpt>
      <trkpt lat="51.07606" lon="5.73486">
        </trkpt>
      <trkpt lat="51.06829" lon="5.7279">
        </trkpt>
      <trkpt lat="51.06014" lon="5.71964">
        </trkpt>
      <trkpt lat="51.05432" lon="5.70895">
        </trkpt>
      <trkpt lat="51.05227" lon="5.69473">
        </trkpt>
      <trkpt lat="51.04609" lon="5.68788">
        </trkpt>
      <trkpt lat="51.04186" lon="5.68228">
        </trkpt>
      <trkpt lat="51.03584" lon="5.66813">
        </trkpt>
      <trkpt lat="51.03042" lon="5.654">
        </trkpt>
      <trkpt lat="51.02449" lon="5.64027">
        </trkpt>
      <trkpt lat="51.01782" lon="5.62713">
        </trkpt>
      <trkpt lat="51.01297" lon="5.61793">
        </trkpt>
      <trkpt lat="51.00886" lon="5.60985">
        </trkpt>
      <trkpt lat="51.00599" lon="5.60381">
        </trkpt>
      <trkpt lat="51.00539" lon="5.60344">
        </trkpt>
      <trkpt lat="50.99978" lon="5.59185">
        </trkpt>
      <trkpt lat="50.99497" lon="5.57933">
        </trkpt>
      <trkpt lat="50.99104" lon="5.57335">
        </trkpt>
      <trkpt lat="50.98984" lon="5.57294">
        </trkpt>
      <trkpt lat="50.9831" lon="5.57092">
        </trkpt>
      <trkpt lat="50.97555" lon="5.56806">
        </trkpt>
      <trkpt lat="50.96924" lon="5.56605">
        </trkpt>
      <trkpt lat="50.95929" lon="5.56297">
        </trkpt>
      <trkpt lat="50.95414" lon="5.56056">
        </trkpt>
      <trkpt lat="50.95106" lon="5.55925">
        </trkpt>
      <trkpt lat="50.94477" lon="5.55941">
        </trkpt>
      <trkpt lat="50.94084" lon="5.55912">
        </trkpt>
      <trkpt lat="50.93985" lon="5.55887">
        </trkpt>
      <trkpt lat="50.93216" lon="5.55522">
        </trkpt>
      <trkpt lat="50.92474" lon="5.55169">
        </trkpt>
      <trkpt lat="50.92217" lon="5.54915">
        </trkpt>
      <trkpt lat="50.91684" lon="5.54238">
        </trkpt>
      <trkpt lat="50.91319" lon="5.53913">
        </trkpt>
      <trkpt lat="50.90618" lon="5.53266">
        </trkpt>
      <trkpt lat="50.90468" lon="5.53018">
        </trkpt>
      <trkpt lat="50.901" lon="5.52738">
        </trkpt>
      <trkpt lat="50.89749" lon="5.52473">
        </trkpt>
      <trkpt lat="50.89783" lon="5.51644">
        </trkpt>
      <trkpt lat="50.89723" lon="5.50719">
        </trkpt>
      <trkpt lat="50.89301" lon="5.49798">
        </trkpt>
      <trkpt lat="50.8883" lon="5.5009">
        </trkpt>
      <trkpt lat="50.88481" lon="5.50846">
        </trkpt>
      <trkpt lat="50.88123" lon="5.50958">
        </trkpt>
      <trkpt lat="50.87502" lon="5.51317">
        </trkpt>
      <trkpt lat="50.87233" lon="5.51383">
        </trkpt>
      <trkpt lat="50.86948" lon="5.51204">
        </trkpt>
      <trkpt lat="50.86927" lon="5.51006">
        </trkpt>
      <trkpt lat="50.86836" lon="5.50969">
        </trkpt>
      <trkpt lat="50.86753" lon="5.50896">
        </trkpt>
      <trkpt lat="50.86725" lon="5.50847">
        </trkpt>
      <trkpt lat="50.86616" lon="5.5074">
        </trkpt>
      <trkpt lat="50.86546" lon="5.50669">
        </trkpt>
      <trkpt lat="50.86284" lon="5.50419">
        </trkpt>
      <trkpt lat="50.8599" lon="5.5014">
        </trkpt>
      <trkpt lat="50.85808" lon="5.49949">
        </trkpt>
      <trkpt lat="50.85553" lon="5.49666">
        </trkpt>
      <trkpt lat="50.85292" lon="5.49401">
        </trkpt>
      <trkpt lat="50.84843" lon="5.48975">
        </trkpt>
      <trkpt lat="50.83947" lon="5.48079">
        </trkpt>
      <trkpt lat="50.82969" lon="5.47102">
        </trkpt>
      <trkpt lat="50.82445" lon="5.4675">
        </trkpt>
      <trkpt lat="50.81378" lon="5.4667">
        </trkpt>
      <trkpt lat="50.80254" lon="5.46587">
        </trkpt>
      <trkpt lat="50.79457" lon="5.4649">
        </trkpt>
      <trkpt lat="50.791" lon="5.46396">
        </trkpt>
      <trkpt lat="50.78454" lon="5.4624">
        </trkpt>
      <trkpt lat="50.7824" lon="5.46084">
        </trkpt>
      <trkpt lat="50.77902" lon="5.45581">
        </trkpt>
      <trkpt lat="50.77706" lon="5.45041">
        </trkpt>
      <trkpt lat="50.77455" lon="5.44839">
        </trkpt>
      <trkpt lat="50.76955" lon="5.44044">
        </trkpt>
      <trkpt lat="50.76674" lon="5.43253">
        </trkpt>
      <trkpt lat="50.76391" lon="5.4283">
        </trkpt>
      <trkpt lat="50.75916" lon="5.43312">
        </trkpt>
      <trkpt lat="50.75646" lon="5.43343">
        </trkpt>
      <trkpt lat="50.75004" lon="5.43323">
        </trkpt>
      <trkpt lat="50.74283" lon="5.4292">
        </trkpt>
      <trkpt lat="50.7314" lon="5.42186">
        </trkpt>
      <trkpt lat="50.72" lon="5.41464">
        </trkpt>
      <trkpt lat="50.7097" lon="5.40816">
        </trkpt>
      <trkpt lat="50.70587" lon="5.40546">
        </trkpt>
      <trkpt lat="50.69833" lon="5.40112">
        </trkpt>
      <trkpt lat="50.69264" lon="5.39689">
        </trkpt>
      <trkpt lat="50.69157" lon="5.39627">
        </trkpt>
      <trkpt lat="50.6844" lon="5.39248">
        </trkpt>
      <trkpt lat="50.67424" lon="5.3866">
        </trkpt>
      <trkpt lat="50.66639" lon="5.38202">
        </trkpt>
      <trkpt lat="50.65796" lon="5.37706">
        </trkpt>
      <trkpt lat="50.65311" lon="5.37451">
        </trkpt>
      <trkpt lat="50.64326" lon="5.36903">
        </trkpt>
      <trkpt lat="50.6353" lon="5.36468">
        </trkpt>
      <trkpt lat="50.63006" lon="5.36172">
        </trkpt>
      <trkpt lat="50.62343" lon="5.35812">
        </trkpt>
      <trkpt lat="50.6202" lon="5.35639">
        </trkpt>
      <trkpt lat="50.6186" lon="5.35579">
        </trkpt>
      <trkpt lat="50.617" lon="5.35495">
        </trkpt>
      <trkpt lat="50.61546" lon="5.3539">
        </trkpt>
      <trkpt lat="50.61107" lon="5.35138">
        </trkpt>
      <trkpt lat="50.60822" lon="5.34984">
        </trkpt>
      <trkpt lat="50.60812" lon="5.34974">
        </trkpt>
      <trkpt lat="50.60702" lon="5.34921">
        </trkpt>
      <trkpt lat="50.60606" lon="5.34849">
        </trkpt>
      <trkpt lat="50.60598" lon="5.34836">
        </trkpt>
      <trkpt lat="50.60587" lon="5.34838">
        </trkpt>
      <trkpt lat="50.60486" lon="5.34812">
        </trkpt>
      <trkpt lat="50.60364" lon="5.34734">
        </trkpt>
      <trkpt lat="50.60238" lon="5.34679">
        </trkpt>
      <trkpt lat="50.59973" lon="5.34537">
        </trkpt>
      <trkpt lat="50.59625" lon="5.34345">
        </trkpt>
      <trkpt lat="50.594" lon="5.34192">
        </trkpt>
      <trkpt lat="50.59133" lon="5.34083">
        </trkpt>
      <trkpt lat="50.58932" lon="5.33752">
        </trkpt>
      <trkpt lat="50.58546" lon="5.33516">
        </trkpt>
      <trkpt lat="50.58205" lon="5.3334">
        </trkpt>
      <trkpt lat="50.57926" lon="5.32839">
        </trkpt>
      <trkpt lat="50.57742" lon="5.31916">
        </trkpt>
      <trkpt lat="50.57705" lon="5.312">
        </trkpt>
      <trkpt lat="50.57536" lon="5.30519">
        </trkpt>
      <trkpt lat="50.5728" lon="5.29962">
        </trkpt>
      <trkpt lat="50.56945" lon="5.29359">
        </trkpt>
      <trkpt lat="50.56898" lon="5.29288">
        </trkpt>
      <trkpt lat="50.56438" lon="5.28654">
        </trkpt>
      <trkpt lat="50.5592" lon="5.28104">
        </trkpt>
      <trkpt lat="50.55512" lon="5.28322">
        </trkpt>
      <trkpt lat="50.54745" lon="5.2836">
        </trkpt>
      <trkpt lat="50.53902" lon="5.28358">
        </trkpt>
      <trkpt lat="50.5328" lon="5.28142">
        </trkpt>
      <trkpt lat="50.5314" lon="5.28059">
        </trkpt>
      <trkpt lat="50.53084" lon="5.27035">
        </trkpt>
      <trkpt lat="50.53449" lon="5.2609">
        </trkpt>
      <trkpt lat="50.53405" lon="5.25197">
        </trkpt>
      <trkpt lat="50.53082" lon="5.24437">
        </trkpt>
      <trkpt lat="50.52508" lon="5.24103">
        </trkpt>
      <trkpt lat="50.52343" lon="5.2405">
        </trkpt>
      <trkpt lat="50.52241" lon="5.2434">
        </trkpt>
      <trkpt lat="50.51918" lon="5.2467">
        </trkpt>
      <trkpt lat="50.51623" lon="5.24608">
        </trkpt>
      <trkpt lat="50.51426" lon="5.24875">
        </trkpt>
      <trkpt lat="50.51405" lon="5.25401">
        </trkpt>
      <trkpt lat="50.51633" lon="5.25669">
        </trkpt>
      <trkpt lat="50.52003" lon="5.25325">
        </trkpt>
      <trkpt lat="50.51865" lon="5.24501">
        </trkpt>
      <trkpt lat="50.51664" lon="5.24051">
        </trkpt>
      <trkpt lat="50.51891" lon="5.23962">
        </trkpt>
      <trkpt lat="50.51972" lon="5.23846">
        </trkpt>
      <trkpt lat="50.51832" lon="5.2367">
        </trkpt>
      <trkpt lat="50.51603" lon="5.23073">
        </trkpt>
      <trkpt lat="50.51766" lon="5.22315">
        </trkpt>
      <trkpt lat="50.52332" lon="5.21882">
        </trkpt>
      <trkpt lat="50.52439" lon="5.21772">
        </trkpt>
      <trkpt lat="50.52648" lon="5.21458">
        </trkpt>
      <trkpt lat="50.53219" lon="5.21055">
        </trkpt>
      <trkpt lat="50.53378" lon="5.20704">
        </trkpt>
      <trkpt lat="50.53362" lon="5.20154">
        </trkpt>
      <trkpt lat="50.53561" lon="5.19459">
        </trkpt>
      <trkpt lat="50.54008" lon="5.18194">
        </trkpt>
      <trkpt lat="50.54073" lon="5.1666">
        </trkpt>
      <trkpt lat="50.54114" lon="5.15316">
        </trkpt>
      <trkpt lat="50.54447" lon="5.1449">
        </trkpt>
      <trkpt lat="50.54596" lon="5.1358">
        </trkpt>
      <trkpt lat="50.54842" lon="5.12717">
        </trkpt>
      <trkpt lat="50.55015" lon="5.11726">
        </trkpt>
      <trkpt lat="50.549" lon="5.09979">
        </trkpt>
      <trkpt lat="50.54901" lon="5.08488">
        </trkpt>
      <trkpt lat="50.54997" lon="5.06796">
        </trkpt>
      <trkpt lat="50.55115" lon="5.04971">
        </trkpt>
      <trkpt lat="50.55468" lon="5.03865">
        </trkpt>
      <trkpt lat="50.5562" lon="5.03557">
        </trkpt>
      <trkpt lat="50.56252" lon="5.02295">
        </trkpt>
      <trkpt lat="50.56858" lon="5.01081">
        </trkpt>
      <trkpt lat="50.57384" lon="5.0005">
        </trkpt>
      <trkpt lat="50.57705" lon="4.98497">
        </trkpt>
      <trkpt lat="50.58062" lon="4.97247">
        </trkpt>
      <trkpt lat="50.58316" lon="4.95982">
        </trkpt>
      <trkpt lat="50.58588" lon="4.94448">
        </trkpt>
      <trkpt lat="50.58889" lon="4.92755">
        </trkpt>
      <trkpt lat="50.591288" lon="4.913887">
        </trkpt>
      <trkpt lat="50.59135" lon="4.91256">
        </trkpt>
      <trkpt lat="50.58501" lon="4.91154">
        </trkpt>
      <trkpt lat="50.58296" lon="4.90796">
        </trkpt>
      <trkpt lat="50.57804" lon="4.89891">
        </trkpt>
      <trkpt lat="50.57715" lon="4.89648">
        </trkpt>
      <trkpt lat="50.57578" lon="4.886">
        </trkpt>
      <trkpt lat="50.57548" lon="4.87223">
        </trkpt>
      <trkpt lat="50.57573" lon="4.86524">
        </trkpt>
      <trkpt lat="50.57315" lon="4.85579">
        </trkpt>
      <trkpt lat="50.56682" lon="4.84143">
        </trkpt>
      <trkpt lat="50.56041" lon="4.82991">
        </trkpt>
      <trkpt lat="50.55364" lon="4.81788">
        </trkpt>
      <trkpt lat="50.54802" lon="4.80856">
        </trkpt>
      <trkpt lat="50.54534" lon="4.80044">
        </trkpt>
      <trkpt lat="50.53848" lon="4.79474">
        </trkpt>
      <trkpt lat="50.53121" lon="4.80051">
        </trkpt>
      <trkpt lat="50.52367" lon="4.80158">
        </trkpt>
      <trkpt lat="50.51445" lon="4.80647">
        </trkpt>
      <trkpt lat="50.50698" lon="4.80565">
        </trkpt>
      <trkpt lat="50.50413" lon="4.80444">
        </trkpt>
      <trkpt lat="50.49993" lon="4.80265">
        </trkpt>
      <trkpt lat="50.49708" lon="4.80491">
        </trkpt>
      <trkpt lat="50.49278" lon="4.80925">
        </trkpt>
      <trkpt lat="50.4901" lon="4.80514">
        </trkpt>
      <trkpt lat="50.48722" lon="4.79932">
        </trkpt>
      <trkpt lat="50.48492" lon="4.79681">
        </trkpt>
    </trkseg>
  </trk>
</gpx>