<?xml version='1.0' encoding='UTF-8'?>
<gpx xmlns="http://www.topografix.com/GPX/1/1" xmlns:xsi="http://www.w3.org/2001/XMLSchema-instance" creator="Garmin Connect" version="1.1" xsi:schemaLocation="http://www.topografix.com/GPX/1/1 http://www.topografix.com/GPX/11.xsd">
  <metadata>
    <name>7.7 ti  Bad Bentheim to Baarlo 152km</name>
    <link href="connect.garmin.com">
      <text>Garmin Connect</text>
    </link>
    <time>2026-05-28T19:23:47.000Z</time>
  </metadata>
  <wpt lat="51.99493327354239" lon="6.92077548537222">
    <ele>0.0</ele>
    <name>Ruokaa</name>
    <cmt>Stadtlohn urheiluhalli parkkipaikka joen rannassa</cmt>
    <type>FOOD</type>
  </wpt>
  <wpt lat="51.56252618747648" lon="6.48513035599183">
    <ele>0.0</ele>
    <name>Lounas </name>
    <cmt>Lounas. Parkkipaikka oikealla. 58-tien varrella </cmt>
    <type>FOOD</type>
  </wpt>
  <wpt lat="51.325321" lon="6.082362">
    <ele>0.0</ele>
    <name>Fletcher Hotel </name>
    <type>GENERIC</type>
  </wpt>
  <trk>
    <name>7.7 ti  Bad Bentheim to Baarlo 152km</name>
    <trkseg>
      <trkpt lat="52.301807943731546" lon="7.159666959196329">
        </trkpt>
      <trkpt lat="52.300920970737934" lon="7.153013991191983">
        </trkpt>
      <trkpt lat="52.298713931813836" lon="7.149300975725055">
        </trkpt>
      <trkpt lat="52.29644235223532" lon="7.143043801188469">
        </trkpt>
      <trkpt lat="52.29426993057132" lon="7.136301985010505">
        </trkpt>
      <trkpt lat="52.28993774391711" lon="7.132922988384962">
        </trkpt>
      <trkpt lat="52.285560965538025" lon="7.132917959243059">
        </trkpt>
      <trkpt lat="52.28376807644963" lon="7.125565521419048">
        </trkpt>
      <trkpt lat="52.284581791609526" lon="7.1156505681574345">
        </trkpt>
      <trkpt lat="52.28642136789858" lon="7.105914065614343">
        </trkpt>
      <trkpt lat="52.285992968827486" lon="7.098825993016362">
        </trkpt>
      <trkpt lat="52.28041045367718" lon="7.093691071495414">
        </trkpt>
      <trkpt lat="52.27443331852555" lon="7.089922735467553">
        </trkpt>
      <trkpt lat="52.26868693716824" lon="7.086379956454039">
        </trkpt>
      <trkpt lat="52.263948898762465" lon="7.07987928763032">
        </trkpt>
      <trkpt lat="52.25851407274604" lon="7.076505068689585">
        </trkpt>
      <trkpt lat="52.25304312072694" lon="7.071557063609362">
        </trkpt>
      <trkpt lat="52.250842954963446" lon="7.064994117245078">
        </trkpt>
      <trkpt lat="52.24494930356741" lon="7.064463961869478">
        </trkpt>
      <trkpt lat="52.23957298323512" lon="7.066072952002287">
        </trkpt>
      <trkpt lat="52.235160917043686" lon="7.0620849262923">
        </trkpt>
      <trkpt lat="52.232793951407075" lon="7.056954950094223">
        </trkpt>
      <trkpt lat="52.228608364239335" lon="7.052182713523507">
        </trkpt>
      <trkpt lat="52.22434977069497" lon="7.046017991378903">
        </trkpt>
      <trkpt lat="52.220374988391995" lon="7.04001696780324">
        </trkpt>
      <trkpt lat="52.2168967500329" lon="7.034214762970805">
        </trkpt>
      <trkpt lat="52.212882321327925" lon="7.030793773010373">
        </trkpt>
      <trkpt lat="52.209154553711414" lon="7.02802699059248">
        </trkpt>
      <trkpt lat="52.20422197133303" lon="7.027674950659275">
        </trkpt>
      <trkpt lat="52.19818381592631" lon="7.027315031737089">
        </trkpt>
      <trkpt lat="52.19347033649683" lon="7.02860601246357">
        </trkpt>
      <trkpt lat="52.18946697190404" lon="7.0298959873616695">
        </trkpt>
      <trkpt lat="52.18455299735069" lon="7.032639971002936">
        </trkpt>
      <trkpt lat="52.1806809771806" lon="7.036904934793711">
        </trkpt>
      <trkpt lat="52.177666928619146" lon="7.038395991548896">
        </trkpt>
      <trkpt lat="52.17410931363702" lon="7.034808788448572">
        </trkpt>
      <trkpt lat="52.1690365858376" lon="7.033452931791544">
        </trkpt>
      <trkpt lat="52.163468319922686" lon="7.028590841218829">
        </trkpt>
      <trkpt lat="52.159756226465106" lon="7.025329191237688">
        </trkpt>
      <trkpt lat="52.155228992924094" lon="7.021305961534381">
        </trkpt>
      <trkpt lat="52.150972075760365" lon="7.017609793692827">
        </trkpt>
      <trkpt lat="52.14639966376126" lon="7.013722267001867">
        </trkpt>
      <trkpt lat="52.141391979530454" lon="7.00963499955833">
        </trkpt>
      <trkpt lat="52.13644296862185" lon="7.006844999268651">
        </trkpt>
      <trkpt lat="52.131203189492226" lon="7.005745880305767">
        </trkpt>
      <trkpt lat="52.125834077596664" lon="7.004569647833705">
        </trkpt>
      <trkpt lat="52.12098263204098" lon="7.00211207382381">
        </trkpt>
      <trkpt lat="52.11531604640186" lon="6.998765263706446">
        </trkpt>
      <trkpt lat="52.11161526851356" lon="7.001056037843227">
        </trkpt>
      <trkpt lat="52.10772438906133" lon="6.994479512795806">
        </trkpt>
      <trkpt lat="52.104459973052144" lon="6.990450918674469">
        </trkpt>
      <trkpt lat="52.10053799673915" lon="6.9871449284255505">
        </trkpt>
      <trkpt lat="52.09678064100444" lon="6.993060875684023">
        </trkpt>
      <trkpt lat="52.09221325814724" lon="6.996378852054477">
        </trkpt>
      <trkpt lat="52.086731158196926" lon="7.000075858086348">
        </trkpt>
      <trkpt lat="52.083450984209776" lon="6.999062988907099">
        </trkpt>
      <trkpt lat="52.078639939427376" lon="6.997318966314197">
        </trkpt>
      <trkpt lat="52.07385496236384" lon="6.99711293913424">
        </trkpt>
      <trkpt lat="52.07160978578031" lon="6.991667887195945">
        </trkpt>
      <trkpt lat="52.069635931402445" lon="6.985546834766865">
        </trkpt>
      <trkpt lat="52.06630337052047" lon="6.986595997586846">
        </trkpt>
      <trkpt lat="52.060308130458" lon="6.98543225415051">
        </trkpt>
      <trkpt lat="52.05438178963959" lon="6.983604663982987">
        </trkpt>
      <trkpt lat="52.049151146784425" lon="6.979130655527115">
        </trkpt>
      <trkpt lat="52.04509665258229" lon="6.9723305851221085">
        </trkpt>
      <trkpt lat="52.04028585925698" lon="6.96788415312767">
        </trkpt>
      <trkpt lat="52.0349177531898" lon="6.962147578597069">
        </trkpt>
      <trkpt lat="52.029716949909925" lon="6.956563387066126">
        </trkpt>
      <trkpt lat="52.02437952160835" lon="6.950942482799292">
        </trkpt>
      <trkpt lat="52.01923571527004" lon="6.9464704021811485">
        </trkpt>
      <trkpt lat="52.013337118551135" lon="6.9433085806667805">
        </trkpt>
      <trkpt lat="52.00753684155643" lon="6.939888764172792">
        </trkpt>
      <trkpt lat="52.002325812354684" lon="6.935971397906542">
        </trkpt>
      <trkpt lat="51.9981009978801" lon="6.932694995775819">
        </trkpt>
      <trkpt lat="51.995015954598784" lon="6.926817940548062">
        </trkpt>
      <trkpt lat="51.99518292210996" lon="6.9221449457108974">
        </trkpt>
      <trkpt lat="51.99418991804123" lon="6.916046943515539">
        </trkpt>
      <trkpt lat="51.99096095748246" lon="6.914947992190719">
        </trkpt>
      <trkpt lat="51.98832895606756" lon="6.911657927557826">
        </trkpt>
      <trkpt lat="51.98443732224405" lon="6.907721869647503">
        </trkpt>
      <trkpt lat="51.98056018911302" lon="6.9041133765131235">
        </trkpt>
      <trkpt lat="51.974929897114635" lon="6.89922446385026">
        </trkpt>
      <trkpt lat="51.96862067095935" lon="6.896106814965606">
        </trkpt>
      <trkpt lat="51.963453982025385" lon="6.891506994143128">
        </trkpt>
      <trkpt lat="51.958126947283745" lon="6.88701999373734">
        </trkpt>
      <trkpt lat="51.95351681672037" lon="6.8800776824355125">
        </trkpt>
      <trkpt lat="51.94997697137296" lon="6.872711917385459">
        </trkpt>
      <trkpt lat="51.94580999203026" lon="6.8688539788126945">
        </trkpt>
      <trkpt lat="51.94442798383534" lon="6.864001946523786">
        </trkpt>
      <trkpt lat="51.940294951200485" lon="6.860140990465879">
        </trkpt>
      <trkpt lat="51.93716271780431" lon="6.853223741054535">
        </trkpt>
      <trkpt lat="51.93329983390868" lon="6.844710158184171">
        </trkpt>
      <trkpt lat="51.92940996028483" lon="6.837959960103035">
        </trkpt>
      <trkpt lat="51.926304968073964" lon="6.830680947750807">
        </trkpt>
      <trkpt lat="51.92679396830499" lon="6.82155498303473">
        </trkpt>
      <trkpt lat="51.92725899629295" lon="6.811773972585797">
        </trkpt>
      <trkpt lat="51.9256226811558" lon="6.803711419925094">
        </trkpt>
      <trkpt lat="51.921324441209435" lon="6.797122405841947">
        </trkpt>
      <trkpt lat="51.916873985901475" lon="6.790513945743442">
        </trkpt>
      <trkpt lat="51.9127660151571" lon="6.784350397065282">
        </trkpt>
      <trkpt lat="51.907768892124295" lon="6.780959162861109">
        </trkpt>
      <trkpt lat="51.90481091849506" lon="6.778340991586447">
        </trkpt>
      <trkpt lat="51.899099573493004" lon="6.7747866455465555">
        </trkpt>
      <trkpt lat="51.89378687180579" lon="6.7707486636936665">
        </trkpt>
      <trkpt lat="51.8904032651335" lon="6.764597939327359">
        </trkpt>
      <trkpt lat="51.88564511016011" lon="6.76053648814559">
        </trkpt>
      <trkpt lat="51.88046308234334" lon="6.75703645683825">
        </trkpt>
      <trkpt lat="51.876204404979944" lon="6.7511282209306955">
        </trkpt>
      <trkpt lat="51.872079921886325" lon="6.745070954784751">
        </trkpt>
      <trkpt lat="51.867203917354345" lon="6.7403419688344">
        </trkpt>
      <trkpt lat="51.86313718557358" lon="6.735141668468714">
        </trkpt>
      <trkpt lat="51.86001199297607" lon="6.727560069411993">
        </trkpt>
      <trkpt lat="51.858312813565135" lon="6.718085082247853">
        </trkpt>
      <trkpt lat="51.856136955320835" lon="6.709898980334401">
        </trkpt>
      <trkpt lat="51.85048629529774" lon="6.711388947442174">
        </trkpt>
      <trkpt lat="51.845262944698334" lon="6.706315968185663">
        </trkpt>
      <trkpt lat="51.84120903722942" lon="6.701186494901776">
        </trkpt>
      <trkpt lat="51.83726937510073" lon="6.697400556877255">
        </trkpt>
      <trkpt lat="51.83374092914164" lon="6.699237953871489">
        </trkpt>
      <trkpt lat="51.83074599131942" lon="6.703231930732727">
        </trkpt>
      <trkpt lat="51.82600141502917" lon="6.705200923606753">
        </trkpt>
      <trkpt lat="51.820965986698866" lon="6.706763980910182">
        </trkpt>
      <trkpt lat="51.81734098121524" lon="6.7080469988286495">
        </trkpt>
      <trkpt lat="51.813695607706904" lon="6.711015617474914">
        </trkpt>
      <trkpt lat="51.80741395801306" lon="6.709720948711038">
        </trkpt>
      <trkpt lat="51.80121185258031" lon="6.710213469341397">
        </trkpt>
      <trkpt lat="51.79640717804432" lon="6.7077183444052935">
        </trkpt>
      <trkpt lat="51.792155960574746" lon="6.704544955864549">
        </trkpt>
      <trkpt lat="51.78682280704379" lon="6.702101798728108">
        </trkpt>
      <trkpt lat="51.78236799314618" lon="6.700447965413332">
        </trkpt>
      <trkpt lat="51.77728193812072" lon="6.697388989850879">
        </trkpt>
      <trkpt lat="51.77222195081413" lon="6.6930709686130285">
        </trkpt>
      <trkpt lat="51.768238954246044" lon="6.689754920080304">
        </trkpt>
      <trkpt lat="51.76300395280123" lon="6.688909940421581">
        </trkpt>
      <trkpt lat="51.75681081600487" lon="6.685720961540937">
        </trkpt>
      <trkpt lat="51.75208074040711" lon="6.683648284524679">
        </trkpt>
      <trkpt lat="51.74560002051294" lon="6.681114351376891">
        </trkpt>
      <trkpt lat="51.73983335494995" lon="6.678370200097561">
        </trkpt>
      <trkpt lat="51.734930109232664" lon="6.679838877171278">
        </trkpt>
      <trkpt lat="51.729266960173845" lon="6.680788965895772">
        </trkpt>
      <trkpt lat="51.72660696320236" lon="6.681815916672349">
        </trkpt>
      <trkpt lat="51.723762983456254" lon="6.676801946014166">
        </trkpt>
      <trkpt lat="51.71916224062443" lon="6.681026006117463">
        </trkpt>
      <trkpt lat="51.71338484622538" lon="6.682934397831559">
        </trkpt>
      <trkpt lat="51.708470452576876" lon="6.678644372150302">
        </trkpt>
      <trkpt lat="51.703638872131705" lon="6.6723202262073755">
        </trkpt>
      <trkpt lat="51.69870251789689" lon="6.667196871712804">
        </trkpt>
      <trkpt lat="51.69348327443004" lon="6.661821054294705">
        </trkpt>
      <trkpt lat="51.68793898075819" lon="6.656100992113352">
        </trkpt>
      <trkpt lat="51.683354917913675" lon="6.652398956939578">
        </trkpt>
      <trkpt lat="51.67816794477403" lon="6.648523919284344">
        </trkpt>
      <trkpt lat="51.67503395117819" lon="6.643458986654878">
        </trkpt>
      <trkpt lat="51.67116595432162" lon="6.6375229228287935">
        </trkpt>
      <trkpt lat="51.66737993247807" lon="6.632438963279128">
        </trkpt>
      <trkpt lat="51.663120249286294" lon="6.626415811479092">
        </trkpt>
      <trkpt lat="51.65897598490119" lon="6.624808916822076">
        </trkpt>
      <trkpt lat="51.65569396689534" lon="6.622426947578788">
        </trkpt>
      <trkpt lat="51.652822997421026" lon="6.617655968293548">
        </trkpt>
      <trkpt lat="51.64943997748196" lon="6.614828919991851">
        </trkpt>
      <trkpt lat="51.645909352228045" lon="6.608248623088002">
        </trkpt>
      <trkpt lat="51.64496756158769" lon="6.598171312361956">
        </trkpt>
      <trkpt lat="51.64363894611597" lon="6.595060955733061">
        </trkpt>
      <trkpt lat="51.640335973352194" lon="6.595496982336044">
        </trkpt>
      <trkpt lat="51.63542593829334" lon="6.589200999587774">
        </trkpt>
      <trkpt lat="51.6315199714154" lon="6.584167247638106">
        </trkpt>
      <trkpt lat="51.626682775095105" lon="6.5779931377619505">
        </trkpt>
      <trkpt lat="51.62261679768562" lon="6.572668282315135">
        </trkpt>
      <trkpt lat="51.61827723495662" lon="6.567253237590194">
        </trkpt>
      <trkpt lat="51.61455198191106" lon="6.561528984457254">
        </trkpt>
      <trkpt lat="51.60952418111265" lon="6.555943116545677">
        </trkpt>
      <trkpt lat="51.605686862021685" lon="6.551029477268457">
        </trkpt>
      <trkpt lat="51.60061229020357" lon="6.54455965384841">
        </trkpt>
      <trkpt lat="51.59610718488693" lon="6.5388058964163065">
        </trkpt>
      <trkpt lat="51.592294592410326" lon="6.533934753388166">
        </trkpt>
      <trkpt lat="51.58772553317249" lon="6.528250062838197">
        </trkpt>
      <trkpt lat="51.58393431454897" lon="6.5232473239302635">
        </trkpt>
      <trkpt lat="51.57996095716953" lon="6.518189935013652">
        </trkpt>
      <trkpt lat="51.57649998553097" lon="6.51382296346128">
        </trkpt>
      <trkpt lat="51.57405666075647" lon="6.508983839303255">
        </trkpt>
      <trkpt lat="51.57063340768218" lon="6.502989940345287">
        </trkpt>
      <trkpt lat="51.567269917577505" lon="6.4953989535570145">
        </trkpt>
      <trkpt lat="51.5645987726748" lon="6.489648884162307">
        </trkpt>
      <trkpt lat="51.56118323095143" lon="6.482203407213092">
        </trkpt>
      <trkpt lat="51.557346833869815" lon="6.473962655290961">
        </trkpt>
      <trkpt lat="51.5536729618907" lon="6.466006468981504">
        </trkpt>
      <trkpt lat="51.55011299997568" lon="6.458319928497076">
        </trkpt>
      <trkpt lat="51.54647994786501" lon="6.4504319708794355">
        </trkpt>
      <trkpt lat="51.542609855532646" lon="6.4421147760003805">
        </trkpt>
      <trkpt lat="51.53849073685706" lon="6.436788579449058">
        </trkpt>
      <trkpt lat="51.53354147449136" lon="6.431387113407254">
        </trkpt>
      <trkpt lat="51.529271230101585" lon="6.4257734175771475">
        </trkpt>
      <trkpt lat="51.52703493833542" lon="6.41831997781992">
        </trkpt>
      <trkpt lat="51.52661525644362" lon="6.407737238332629">
        </trkpt>
      <trkpt lat="51.52556072920561" lon="6.398938084021211">
        </trkpt>
      <trkpt lat="51.525030825287104" lon="6.389618748798966">
        </trkpt>
      <trkpt lat="51.52510215528309" lon="6.378856468945742">
        </trkpt>
      <trkpt lat="51.52516694739461" lon="6.369073949754238">
        </trkpt>
      <trkpt lat="51.524773417040706" lon="6.359261842444539">
        </trkpt>
      <trkpt lat="51.523288981989026" lon="6.350692939013243">
        </trkpt>
      <trkpt lat="51.521909991279244" lon="6.343270931392908">
        </trkpt>
      <trkpt lat="51.52067692950368" lon="6.3365009520202875">
        </trkpt>
      <trkpt lat="51.51948778890073" lon="6.330127771943808">
        </trkpt>
      <trkpt lat="51.51807015761733" lon="6.323372879996896">
        </trkpt>
      <trkpt lat="51.516864923760295" lon="6.318879928439856">
        </trkpt>
      <trkpt lat="51.51551594026387" lon="6.314140968024731">
        </trkpt>
      <trkpt lat="51.51283892802894" lon="6.307899719104171">
        </trkpt>
      <trkpt lat="51.50665853172541" lon="6.305816397070885">
        </trkpt>
      <trkpt lat="51.50126871652901" lon="6.303315320983529">
        </trkpt>
      <trkpt lat="51.49526098743081" lon="6.300495145842433">
        </trkpt>
      <trkpt lat="51.489885924384" lon="6.2979869451373816">
        </trkpt>
      <trkpt lat="51.48462099954486" lon="6.2953179795295">
        </trkpt>
      <trkpt lat="51.47879700176418" lon="6.29131905734539">
        </trkpt>
      <trkpt lat="51.47341397590935" lon="6.287361793220043">
        </trkpt>
      <trkpt lat="51.46730264648795" lon="6.282836319878697">
        </trkpt>
      <trkpt lat="51.46196932531893" lon="6.278852820396423">
        </trkpt>
      <trkpt lat="51.4564520213753" lon="6.2746333703398705">
        </trkpt>
      <trkpt lat="51.45261595956981" lon="6.271329978480935">
        </trkpt>
      <trkpt lat="51.44863799214363" lon="6.268717925995588">
        </trkpt>
      <trkpt lat="51.44495598971844" lon="6.264189938083291">
        </trkpt>
      <trkpt lat="51.44113744609058" lon="6.264008637517691">
        </trkpt>
      <trkpt lat="51.436495799571276" lon="6.2578643672168255">
        </trkpt>
      <trkpt lat="51.43209672532976" lon="6.251949090510607">
        </trkpt>
      <trkpt lat="51.42759799025953" lon="6.246038926765323">
        </trkpt>
      <trkpt lat="51.42363821156323" lon="6.240812391042709">
        </trkpt>
      <trkpt lat="51.41868241131306" lon="6.234326558187604">
        </trkpt>
      <trkpt lat="51.41388561576605" lon="6.228037197142839">
        </trkpt>
      <trkpt lat="51.40898270532489" lon="6.221602661535144">
        </trkpt>
      <trkpt lat="51.40427861362696" lon="6.215428551658988">
        </trkpt>
      <trkpt lat="51.39947502873838" lon="6.209175316616893">
        </trkpt>
      <trkpt lat="51.39453498646617" lon="6.2027159705758095">
        </trkpt>
      <trkpt lat="51.38974891975522" lon="6.199057940393686">
        </trkpt>
      <trkpt lat="51.3858628179878" lon="6.195747843012214">
        </trkpt>
      <trkpt lat="51.38317197561264" lon="6.190033983439207">
        </trkpt>
      <trkpt lat="51.3809809461236" lon="6.184919932857156">
        </trkpt>
      <trkpt lat="51.377985924482346" lon="6.180613981559873">
        </trkpt>
      <trkpt lat="51.37505971826613" lon="6.17781107313931">
        </trkpt>
      <trkpt lat="51.370939929038286" lon="6.171567980200052">
        </trkpt>
      <trkpt lat="51.36771599762142" lon="6.168485954403877">
        </trkpt>
      <trkpt lat="51.368098547682166" lon="6.164658106863499">
        </trkpt>
      <trkpt lat="51.37006091885269" lon="6.1607609409838915">
        </trkpt>
      <trkpt lat="51.36615386232734" lon="6.155598443001509">
        </trkpt>
      <trkpt lat="51.36142998933792" lon="6.149910986423492">
        </trkpt>
      <trkpt lat="51.35826791636646" lon="6.144899949431419">
        </trkpt>
      <trkpt lat="51.35655993595719" lon="6.141029940918088">
        </trkpt>
      <trkpt lat="51.35388795286417" lon="6.136897997930646">
        </trkpt>
      <trkpt lat="51.35060098953545" lon="6.131241973489523">
        </trkpt>
      <trkpt lat="51.34682636708021" lon="6.124551873654127">
        </trkpt>
      <trkpt lat="51.34323488920927" lon="6.116462415084243">
        </trkpt>
      <trkpt lat="51.34133303537965" lon="6.110009020194411">
        </trkpt>
      <trkpt lat="51.33653188124299" lon="6.106328945606947">
        </trkpt>
      <trkpt lat="51.33200875483453" lon="6.10256178304553">
        </trkpt>
      <trkpt lat="51.33169393055141" lon="6.097801951691508">
        </trkpt>
      <trkpt lat="51.331295957788825" lon="6.0923699755221605">
        </trkpt>
      <trkpt lat="51.33111893199384" lon="6.087745930999517">
        </trkpt>
      <trkpt lat="51.328998981043696" lon="6.081869965419173">
        </trkpt>
      <trkpt lat="51.32569491863251" lon="6.08040195889771">
        </trkpt>
      <trkpt lat="51.32531840354204" lon="6.0823675990104675">
        </trkpt>
    </trkseg>
  </trk>
</gpx>