<?xml version='1.0' encoding='UTF-8'?>
<gpx xmlns="http://www.topografix.com/GPX/1/1" xmlns:xsi="http://www.w3.org/2001/XMLSchema-instance" version="1.1" creator="https://www.komoot.de" xsi:schemaLocation="http://www.topografix.com/GPX/1/1 http://www.topografix.com/GPX/1/1/gpx.xsd">
  <metadata>
    <name>from Verden (Aller) to Bad Bentheim no cycle ways</name>
    <author>
      <link href="https://www.komoot.de">
        <text>komoot</text>
        <type>text/html</type>
      </link>
    </author>
  </metadata>
  <trk>
    <name>from Verden (Aller) to Bad Bentheim no cycle ways</name>
    <trkseg>
      <trkpt lat="52.920582" lon="9.227329">
        </trkpt>
      <trkpt lat="52.919734" lon="9.224912">
        </trkpt>
      <trkpt lat="52.918706" lon="9.220509">
        </trkpt>
      <trkpt lat="52.919279" lon="9.217552">
        </trkpt>
      <trkpt lat="52.921443" lon="9.206598">
        </trkpt>
      <trkpt lat="52.921473" lon="9.198271">
        </trkpt>
      <trkpt lat="52.921374" lon="9.192687">
        </trkpt>
      <trkpt lat="52.923669" lon="9.186496">
        </trkpt>
      <trkpt lat="52.924969" lon="9.179055">
        </trkpt>
      <trkpt lat="52.925622" lon="9.175345">
        </trkpt>
      <trkpt lat="52.920081" lon="9.164224">
        </trkpt>
      <trkpt lat="52.919943" lon="9.160643">
        </trkpt>
      <trkpt lat="52.920172" lon="9.151868">
        </trkpt>
      <trkpt lat="52.924224" lon="9.142761">
        </trkpt>
      <trkpt lat="52.928071" lon="9.137790">
        </trkpt>
      <trkpt lat="52.927257" lon="9.134069">
        </trkpt>
      <trkpt lat="52.924740" lon="9.131890">
        </trkpt>
      <trkpt lat="52.922107" lon="9.121784">
        </trkpt>
      <trkpt lat="52.919590" lon="9.114631">
        </trkpt>
      <trkpt lat="52.918496" lon="9.111141">
        </trkpt>
      <trkpt lat="52.918091" lon="9.107659">
        </trkpt>
      <trkpt lat="52.915232" lon="9.100625">
        </trkpt>
      <trkpt lat="52.916362" lon="9.097254">
        </trkpt>
      <trkpt lat="52.910238" lon="9.074076">
        </trkpt>
      <trkpt lat="52.905726" lon="9.056155">
        </trkpt>
      <trkpt lat="52.901460" lon="9.039159">
        </trkpt>
      <trkpt lat="52.901368" lon="9.024102">
        </trkpt>
      <trkpt lat="52.899745" lon="9.019547">
        </trkpt>
      <trkpt lat="52.897714" lon="9.018828">
        </trkpt>
      <trkpt lat="52.894115" lon="9.013323">
        </trkpt>
      <trkpt lat="52.890890" lon="9.011560">
        </trkpt>
      <trkpt lat="52.883833" lon="9.005584">
        </trkpt>
      <trkpt lat="52.873906" lon="8.998108">
        </trkpt>
      <trkpt lat="52.865590" lon="8.986265">
        </trkpt>
      <trkpt lat="52.863394" lon="8.968808">
        </trkpt>
      <trkpt lat="52.850430" lon="8.951478">
        </trkpt>
      <trkpt lat="52.846189" lon="8.949883">
        </trkpt>
      <trkpt lat="52.844721" lon="8.947415">
        </trkpt>
      <trkpt lat="52.842261" lon="8.941106">
        </trkpt>
      <trkpt lat="52.838276" lon="8.930898">
        </trkpt>
      <trkpt lat="52.836559" lon="8.915170">
        </trkpt>
      <trkpt lat="52.833759" lon="8.918097">
        </trkpt>
      <trkpt lat="52.830566" lon="8.915104">
        </trkpt>
      <trkpt lat="52.825769" lon="8.907640">
        </trkpt>
      <trkpt lat="52.822707" lon="8.902660">
        </trkpt>
      <trkpt lat="52.819924" lon="8.901931">
        </trkpt>
      <trkpt lat="52.815176" lon="8.899872">
        </trkpt>
      <trkpt lat="52.810960" lon="8.887913">
        </trkpt>
      <trkpt lat="52.805656" lon="8.867536">
        </trkpt>
      <trkpt lat="52.805119" lon="8.862196">
        </trkpt>
      <trkpt lat="52.802715" lon="8.854792">
        </trkpt>
      <trkpt lat="52.796815" lon="8.842492">
        </trkpt>
      <trkpt lat="52.795648" lon="8.839939">
        </trkpt>
      <trkpt lat="52.793378" lon="8.837632">
        </trkpt>
      <trkpt lat="52.788097" lon="8.829452">
        </trkpt>
      <trkpt lat="52.780012" lon="8.779643">
        </trkpt>
      <trkpt lat="52.774381" lon="8.762801">
        </trkpt>
      <trkpt lat="52.773964" lon="8.755993">
        </trkpt>
      <trkpt lat="52.774819" lon="8.750880">
        </trkpt>
      <trkpt lat="52.773230" lon="8.747353">
        </trkpt>
      <trkpt lat="52.773862" lon="8.740188">
        </trkpt>
      <trkpt lat="52.773187" lon="8.721179">
        </trkpt>
      <trkpt lat="52.775017" lon="8.698997">
        </trkpt>
      <trkpt lat="52.769300" lon="8.684480">
        </trkpt>
      <trkpt lat="52.765860" lon="8.676093">
        </trkpt>
      <trkpt lat="52.765239" lon="8.666434">
        </trkpt>
      <trkpt lat="52.766004" lon="8.652643">
        </trkpt>
      <trkpt lat="52.769876" lon="8.636454">
        </trkpt>
      <trkpt lat="52.771322" lon="8.624482">
        </trkpt>
      <trkpt lat="52.772453" lon="8.617177">
        </trkpt>
      <trkpt lat="52.772060" lon="8.612029">
        </trkpt>
      <trkpt lat="52.768082" lon="8.603443">
        </trkpt>
      <trkpt lat="52.760420" lon="8.590061">
        </trkpt>
      <trkpt lat="52.750005" lon="8.571630">
        </trkpt>
      <trkpt lat="52.747556" lon="8.568301">
        </trkpt>
      <trkpt lat="52.742066" lon="8.561037">
        </trkpt>
      <trkpt lat="52.738370" lon="8.550987">
        </trkpt>
      <trkpt lat="52.731345" lon="8.546871">
        </trkpt>
      <trkpt lat="52.722612" lon="8.535342">
        </trkpt>
      <trkpt lat="52.719334" lon="8.528928">
        </trkpt>
      <trkpt lat="52.717929" lon="8.524769">
        </trkpt>
      <trkpt lat="52.714616" lon="8.514947">
        </trkpt>
      <trkpt lat="52.712882" lon="8.511127">
        </trkpt>
      <trkpt lat="52.711025" lon="8.508985">
        </trkpt>
      <trkpt lat="52.709660" lon="8.504880">
        </trkpt>
      <trkpt lat="52.709750" lon="8.501478">
        </trkpt>
      <trkpt lat="52.706428" lon="8.495515">
        </trkpt>
      <trkpt lat="52.702359" lon="8.490983">
        </trkpt>
      <trkpt lat="52.697639" lon="8.485700">
        </trkpt>
      <trkpt lat="52.686525" lon="8.473324">
        </trkpt>
      <trkpt lat="52.676057" lon="8.461683">
        </trkpt>
      <trkpt lat="52.671377" lon="8.456737">
        </trkpt>
      <trkpt lat="52.669564" lon="8.456200">
        </trkpt>
      <trkpt lat="52.667902" lon="8.454034">
        </trkpt>
      <trkpt lat="52.663956" lon="8.439168">
        </trkpt>
      <trkpt lat="52.657921" lon="8.421477">
        </trkpt>
      <trkpt lat="52.654237" lon="8.413293">
        </trkpt>
      <trkpt lat="52.653677" lon="8.408278">
        </trkpt>
      <trkpt lat="52.651345" lon="8.396999">
        </trkpt>
      <trkpt lat="52.648760" lon="8.386480">
        </trkpt>
      <trkpt lat="52.649196" lon="8.380474">
        </trkpt>
      <trkpt lat="52.651255" lon="8.365789">
        </trkpt>
      <trkpt lat="52.650741" lon="8.358175">
        </trkpt>
      <trkpt lat="52.653104" lon="8.353556">
        </trkpt>
      <trkpt lat="52.654571" lon="8.348573">
        </trkpt>
      <trkpt lat="52.655055" lon="8.337891">
        </trkpt>
      <trkpt lat="52.655101" lon="8.335597">
        </trkpt>
      <trkpt lat="52.657121" lon="8.333645">
        </trkpt>
      <trkpt lat="52.659612" lon="8.318879">
        </trkpt>
      <trkpt lat="52.662579" lon="8.282970">
        </trkpt>
      <trkpt lat="52.661972" lon="8.271419">
        </trkpt>
      <trkpt lat="52.661259" lon="8.260100">
        </trkpt>
      <trkpt lat="52.661470" lon="8.250890">
        </trkpt>
      <trkpt lat="52.662480" lon="8.241818">
        </trkpt>
      <trkpt lat="52.664026" lon="8.239584">
        </trkpt>
      <trkpt lat="52.664589" lon="8.235985">
        </trkpt>
      <trkpt lat="52.664863" lon="8.230136">
        </trkpt>
      <trkpt lat="52.664437" lon="8.227076">
        </trkpt>
      <trkpt lat="52.664539" lon="8.225768">
        </trkpt>
      <trkpt lat="52.663811" lon="8.223235">
        </trkpt>
      <trkpt lat="52.662510" lon="8.215834">
        </trkpt>
      <trkpt lat="52.661623" lon="8.206253">
        </trkpt>
      <trkpt lat="52.660017" lon="8.193317">
        </trkpt>
      <trkpt lat="52.659412" lon="8.189563">
        </trkpt>
      <trkpt lat="52.657688" lon="8.187447">
        </trkpt>
      <trkpt lat="52.655743" lon="8.184731">
        </trkpt>
      <trkpt lat="52.654228" lon="8.181175">
        </trkpt>
      <trkpt lat="52.651188" lon="8.177524">
        </trkpt>
      <trkpt lat="52.649896" lon="8.175635">
        </trkpt>
      <trkpt lat="52.644514" lon="8.164722">
        </trkpt>
      <trkpt lat="52.642822" lon="8.163392">
        </trkpt>
      <trkpt lat="52.638211" lon="8.153277">
        </trkpt>
      <trkpt lat="52.636743" lon="8.151153">
        </trkpt>
      <trkpt lat="52.633709" lon="8.141991">
        </trkpt>
      <trkpt lat="52.629933" lon="8.134556">
        </trkpt>
      <trkpt lat="52.628696" lon="8.124381">
        </trkpt>
      <trkpt lat="52.623466" lon="8.118655">
        </trkpt>
      <trkpt lat="52.620103" lon="8.115283">
        </trkpt>
      <trkpt lat="52.620720" lon="8.109175">
        </trkpt>
      <trkpt lat="52.617553" lon="8.102876">
        </trkpt>
      <trkpt lat="52.614838" lon="8.091250">
        </trkpt>
      <trkpt lat="52.601571" lon="8.079472">
        </trkpt>
      <trkpt lat="52.603762" lon="8.069094">
        </trkpt>
      <trkpt lat="52.605152" lon="8.062313">
        </trkpt>
      <trkpt lat="52.603856" lon="8.058385">
        </trkpt>
      <trkpt lat="52.600161" lon="8.052422">
        </trkpt>
      <trkpt lat="52.597493" lon="8.036965">
        </trkpt>
      <trkpt lat="52.593798" lon="8.030657">
        </trkpt>
      <trkpt lat="52.586408" lon="8.018474">
        </trkpt>
      <trkpt lat="52.583360" lon="8.010297">
        </trkpt>
      <trkpt lat="52.581230" lon="8.004113">
        </trkpt>
      <trkpt lat="52.577169" lon="7.997761">
        </trkpt>
      <trkpt lat="52.574562" lon="7.995702">
        </trkpt>
      <trkpt lat="52.572119" lon="7.993184">
        </trkpt>
      <trkpt lat="52.570701" lon="7.987042">
        </trkpt>
      <trkpt lat="52.568530" lon="7.977139">
        </trkpt>
      <trkpt lat="52.564919" lon="7.973350">
        </trkpt>
      <trkpt lat="52.562471" lon="7.969851">
        </trkpt>
      <trkpt lat="52.560571" lon="7.963938">
        </trkpt>
      <trkpt lat="52.559002" lon="7.959106">
        </trkpt>
      <trkpt lat="52.558399" lon="7.957505">
        </trkpt>
      <trkpt lat="52.557559" lon="7.953707">
        </trkpt>
      <trkpt lat="52.557396" lon="7.950321">
        </trkpt>
      <trkpt lat="52.556235" lon="7.946140">
        </trkpt>
      <trkpt lat="52.556457" lon="7.941047">
        </trkpt>
      <trkpt lat="52.556512" lon="7.934458">
        </trkpt>
      <trkpt lat="52.556445" lon="7.929305">
        </trkpt>
      <trkpt lat="52.556434" lon="7.924418">
        </trkpt>
      <trkpt lat="52.556186" lon="7.915275">
        </trkpt>
      <trkpt lat="52.554737" lon="7.909159">
        </trkpt>
      <trkpt lat="52.550467" lon="7.904037">
        </trkpt>
      <trkpt lat="52.548025" lon="7.897621">
        </trkpt>
      <trkpt lat="52.546222" lon="7.890087">
        </trkpt>
      <trkpt lat="52.542967" lon="7.881835">
        </trkpt>
      <trkpt lat="52.541421" lon="7.873957">
        </trkpt>
      <trkpt lat="52.541310" lon="7.871398">
        </trkpt>
      <trkpt lat="52.540623" lon="7.868078">
        </trkpt>
      <trkpt lat="52.537759" lon="7.865539">
        </trkpt>
      <trkpt lat="52.533586" lon="7.860507">
        </trkpt>
      <trkpt lat="52.518750" lon="7.831866">
        </trkpt>
      <trkpt lat="52.509690" lon="7.817486">
        </trkpt>
      <trkpt lat="52.505647" lon="7.813415">
        </trkpt>
      <trkpt lat="52.490783" lon="7.802033">
        </trkpt>
      <trkpt lat="52.485523" lon="7.798566">
        </trkpt>
      <trkpt lat="52.459172" lon="7.781705">
        </trkpt>
      <trkpt lat="52.449498" lon="7.780397">
        </trkpt>
      <trkpt lat="52.433516" lon="7.752461">
        </trkpt>
      <trkpt lat="52.431880" lon="7.746986">
        </trkpt>
      <trkpt lat="52.429650" lon="7.743624">
        </trkpt>
      <trkpt lat="52.423257" lon="7.740695">
        </trkpt>
      <trkpt lat="52.418046" lon="7.732266">
        </trkpt>
      <trkpt lat="52.415155" lon="7.724496">
        </trkpt>
      <trkpt lat="52.416061" lon="7.708787">
        </trkpt>
      <trkpt lat="52.416969" lon="7.687240">
        </trkpt>
      <trkpt lat="52.418813" lon="7.680355">
        </trkpt>
      <trkpt lat="52.417842" lon="7.673342">
        </trkpt>
      <trkpt lat="52.416745" lon="7.667945">
        </trkpt>
      <trkpt lat="52.413527" lon="7.666792">
        </trkpt>
      <trkpt lat="52.404107" lon="7.646537">
        </trkpt>
      <trkpt lat="52.392769" lon="7.626983">
        </trkpt>
      <trkpt lat="52.387010" lon="7.616234">
        </trkpt>
      <trkpt lat="52.385955" lon="7.608824">
        </trkpt>
      <trkpt lat="52.383821" lon="7.604226">
        </trkpt>
      <trkpt lat="52.382271" lon="7.597691">
        </trkpt>
      <trkpt lat="52.381607" lon="7.594979">
        </trkpt>
      <trkpt lat="52.378892" lon="7.589438">
        </trkpt>
      <trkpt lat="52.375913" lon="7.585765">
        </trkpt>
      <trkpt lat="52.369404" lon="7.575182">
        </trkpt>
      <trkpt lat="52.364906" lon="7.566716">
        </trkpt>
      <trkpt lat="52.358057" lon="7.539399">
        </trkpt>
      <trkpt lat="52.354183" lon="7.527146">
        </trkpt>
      <trkpt lat="52.343138" lon="7.514847">
        </trkpt>
      <trkpt lat="52.335655" lon="7.507205">
        </trkpt>
      <trkpt lat="52.334919" lon="7.498129">
        </trkpt>
      <trkpt lat="52.335504" lon="7.488182">
        </trkpt>
      <trkpt lat="52.346812" lon="7.466213">
        </trkpt>
      <trkpt lat="52.348281" lon="7.463266">
        </trkpt>
      <trkpt lat="52.350305" lon="7.459322">
        </trkpt>
      <trkpt lat="52.351780" lon="7.454931">
        </trkpt>
      <trkpt lat="52.351491" lon="7.449757">
        </trkpt>
      <trkpt lat="52.348865" lon="7.442468">
        </trkpt>
      <trkpt lat="52.348392" lon="7.437794">
        </trkpt>
      <trkpt lat="52.349010" lon="7.432878">
        </trkpt>
      <trkpt lat="52.344721" lon="7.429088">
        </trkpt>
      <trkpt lat="52.341199" lon="7.427612">
        </trkpt>
      <trkpt lat="52.341463" lon="7.405202">
        </trkpt>
      <trkpt lat="52.339812" lon="7.384006">
        </trkpt>
      <trkpt lat="52.341092" lon="7.377652">
        </trkpt>
      <trkpt lat="52.339206" lon="7.374884">
        </trkpt>
      <trkpt lat="52.336725" lon="7.374100">
        </trkpt>
      <trkpt lat="52.332996" lon="7.367134">
        </trkpt>
      <trkpt lat="52.329422" lon="7.362060">
        </trkpt>
      <trkpt lat="52.327492" lon="7.356111">
        </trkpt>
      <trkpt lat="52.326767" lon="7.353803">
        </trkpt>
      <trkpt lat="52.325418" lon="7.351425">
        </trkpt>
      <trkpt lat="52.325000" lon="7.348737">
        </trkpt>
      <trkpt lat="52.323774" lon="7.347039">
        </trkpt>
      <trkpt lat="52.321595" lon="7.344497">
        </trkpt>
      <trkpt lat="52.321405" lon="7.341443">
        </trkpt>
      <trkpt lat="52.323238" lon="7.328800">
        </trkpt>
      <trkpt lat="52.324324" lon="7.314171">
        </trkpt>
      <trkpt lat="52.323311" lon="7.302090">
        </trkpt>
      <trkpt lat="52.320904" lon="7.284355">
        </trkpt>
      <trkpt lat="52.319421" lon="7.270260">
        </trkpt>
      <trkpt lat="52.312480" lon="7.255722">
        </trkpt>
      <trkpt lat="52.304376" lon="7.245647">
        </trkpt>
      <trkpt lat="52.301430" lon="7.240588">
        </trkpt>
      <trkpt lat="52.300699" lon="7.236804">
        </trkpt>
      <trkpt lat="52.300551" lon="7.230757">
        </trkpt>
      <trkpt lat="52.301380" lon="7.227920">
        </trkpt>
      <trkpt lat="52.299420" lon="7.221142">
        </trkpt>
      <trkpt lat="52.297615" lon="7.205942">
        </trkpt>
      <trkpt lat="52.297154" lon="7.194654">
        </trkpt>
      <trkpt lat="52.297581" lon="7.187639">
        </trkpt>
      <trkpt lat="52.298223" lon="7.180404">
        </trkpt>
      <trkpt lat="52.297849" lon="7.169209">
        </trkpt>
      <trkpt lat="52.300192" lon="7.167897">
        </trkpt>
      <trkpt lat="52.300986" lon="7.162912">
        </trkpt>
      <trkpt lat="52.301806" lon="7.159458">
        </trkpt>
      <trkpt lat="52.301623" lon="7.159491">
        </trkpt>
    </trkseg>
  </trk>
</gpx>