<?xml version='1.0' encoding='UTF-8'?>
<gpx xmlns="http://www.topografix.com/GPX/1/1" xmlns:xsi="http://www.w3.org/2001/XMLSchema-instance" creator="Garmin Connect" version="1.1" xsi:schemaLocation="http://www.topografix.com/GPX/1/1 http://www.topografix.com/GPX/11.xsd">
  <metadata>
    <name>TdP 9.7. Namur-Fourmies</name>
    <link href="connect.garmin.com">
      <text>Garmin Connect</text>
    </link>
    <time>2026-04-13T06:28:20.000Z</time>
  </metadata>
  <wpt lat="50.44872425909687" lon="4.76802493753399">
    <ele>0.0</ele>
    <name>Pyörätielle</name>
    <cmt>Siirrytään pyörätielle</cmt>
    <type>TRANSITION</type>
  </wpt>
  <wpt lat="50.43392596329099" lon="4.75593239898127">
    <ele>0.0</ele>
    <name>Kadulle</name>
    <cmt>Pyörätieltä sillan jälkeen kadulle.</cmt>
    <type>TRANSITION</type>
  </wpt>
  <wpt lat="50.42205815128142" lon="4.69843071259557">
    <ele>0.0</ele>
    <name>Bio</name>
    <type>TOILET</type>
  </wpt>
  <wpt lat="50.39395293887953" lon="4.68676328659058">
    <ele>0.0</ele>
    <name>Pyörätielle</name>
    <cmt>Risteysalue, siirrytään kadun yli ja pyörätie heti vasemmalle.</cmt>
    <type>TRANSITION</type>
  </wpt>
  <wpt lat="50.34532663593051" lon="4.69605046344845">
    <ele>0.0</ele>
    <name>Tien ylitys</name>
    <cmt>Pyörätie ylittää kadun, huono näkyvyys</cmt>
    <type>DANGER</type>
  </wpt>
  <wpt lat="50.32130645648532" lon="4.66565038179829">
    <ele>0.0</ele>
    <name>Kadulle paluu</name>
    <cmt>Siirrytään kadulle</cmt>
    <type>TRANSITION</type>
  </wpt>
  <wpt lat="50.31901359984274" lon="4.65449099626705">
    <ele>0.0</ele>
    <name>Aamupv tauko</name>
    <cmt>Hautausmaan parkkipaikka, ei biopaikkaa</cmt>
    <type>FOOD</type>
  </wpt>
  <wpt lat="50.24033446996213" lon="4.57315021769981">
    <ele>0.0</ele>
    <name>Bio</name>
    <type>TOILET</type>
  </wpt>
  <wpt lat="50.21539304806578" lon="4.51685208971213">
    <ele>0.0</ele>
    <name>Valtatie</name>
    <cmt>Valtatien risteys</cmt>
    <type>INFO</type>
  </wpt>
  <wpt lat="50.20172185116888" lon="4.49314847938773">
    <ele>0.0</ele>
    <name>Valtatie</name>
    <cmt>Valtatien risteys</cmt>
    <type>INFO</type>
  </wpt>
  <wpt lat="50.17425160056039" lon="4.40906529570705">
    <ele>0.0</ele>
    <name>Lounas 1</name>
    <cmt>Museon ja urheilukentän parkkipaikka</cmt>
    <type>FOOD</type>
  </wpt>
  <wpt lat="50.16323969794763" lon="4.37119051240336">
    <ele>0.0</ele>
    <name>Bio</name>
    <cmt>Pienen tien risteys</cmt>
    <type>TOILET</type>
  </wpt>
  <wpt lat="50.15100503238801" lon="4.32802230823305">
    <ele>0.0</ele>
    <name>Huollon reitti</name>
    <type>INFO</type>
  </wpt>
  <wpt lat="50.15197944827378" lon="4.32718869298697">
    <ele>0.0</ele>
    <name>Lounas 2</name>
    <cmt>Kirkon viereinen parkkipaikka, ei bio</cmt>
    <type>FOOD</type>
  </wpt>
  <wpt lat="50.13930526241582" lon="4.23735134553747">
    <ele>0.0</ele>
    <name>Välipala ja bio</name>
    <cmt>Pisto pellolle, myös bio</cmt>
    <type>FOOD</type>
  </wpt>
  <wpt lat="50.08257225150529" lon="4.19124943276074">
    <ele>0.0</ele>
    <name>Bio</name>
    <cmt>Puomilla suljettu tie, ei asutusta, levike</cmt>
    <type>TOILET</type>
  </wpt>
  <trk>
    <name>TdP 9.7. Namur-Fourmies</name>
    <trkseg>
      <trkpt lat="50.48572663217783" lon="4.79592508636415">
        </trkpt>
      <trkpt lat="50.48483848571777" lon="4.792656898498535">
        </trkpt>
      <trkpt lat="50.482164826244116" lon="4.787429356947541">
        </trkpt>
      <trkpt lat="50.47940508462489" lon="4.7833052929490805">
        </trkpt>
      <trkpt lat="50.476310988888144" lon="4.779859324917197">
        </trkpt>
      <trkpt lat="50.472964849323034" lon="4.777271328493953">
        </trkpt>
      <trkpt lat="50.46977519989014" lon="4.774417877197266">
        </trkpt>
      <trkpt lat="50.46801541931927" lon="4.76984697394073">
        </trkpt>
      <trkpt lat="50.465515768155456" lon="4.76777664385736">
        </trkpt>
      <trkpt lat="50.46196301467717" lon="4.767843782901764">
        </trkpt>
      <trkpt lat="50.45765362679958" lon="4.768125498667359">
        </trkpt>
      <trkpt lat="50.4534029122442" lon="4.768438311293721">
        </trkpt>
      <trkpt lat="50.45053839683533" lon="4.769117832183838">
        </trkpt>
      <trkpt lat="50.44903996400535" lon="4.768089959397912">
        </trkpt>
      <trkpt lat="50.448126001283526" lon="4.763331972062588">
        </trkpt>
      <trkpt lat="50.44494037516415" lon="4.760232260450721">
        </trkpt>
      <trkpt lat="50.441609993577" lon="4.757729927077889">
        </trkpt>
      <trkpt lat="50.43822999112308" lon="4.758109962567687">
        </trkpt>
      <trkpt lat="50.435542333871126" lon="4.757320387288928">
        </trkpt>
      <trkpt lat="50.433129938319325" lon="4.754749992862344">
        </trkpt>
      <trkpt lat="50.432069292292" lon="4.751626895740628">
        </trkpt>
      <trkpt lat="50.43235997669399" lon="4.746409999206662">
        </trkpt>
      <trkpt lat="50.43381993658841" lon="4.741309946402907">
        </trkpt>
      <trkpt lat="50.433747516945004" lon="4.738162625581026">
        </trkpt>
      <trkpt lat="50.43436492793262" lon="4.7340028546750546">
        </trkpt>
      <trkpt lat="50.43598975986242" lon="4.731224253773689">
        </trkpt>
      <trkpt lat="50.43445595540106" lon="4.7286272048950195">
        </trkpt>
      <trkpt lat="50.43267488479614" lon="4.723348617553711">
        </trkpt>
      <trkpt lat="50.432322677224874" lon="4.717583879828453">
        </trkpt>
      <trkpt lat="50.431537544354796" lon="4.711374314501882">
        </trkpt>
      <trkpt lat="50.428817784413695" lon="4.709653174504638">
        </trkpt>
      <trkpt lat="50.42634168639779" lon="4.704996105283499">
        </trkpt>
      <trkpt lat="50.42391965165734" lon="4.699859172105789">
        </trkpt>
      <trkpt lat="50.4210018273443" lon="4.698228808119893">
        </trkpt>
      <trkpt lat="50.416840044781566" lon="4.698561653494835">
        </trkpt>
      <trkpt lat="50.41257365606725" lon="4.698574477806687">
        </trkpt>
      <trkpt lat="50.40909265168011" lon="4.696386717259884">
        </trkpt>
      <trkpt lat="50.40701343677938" lon="4.69189016148448">
        </trkpt>
      <trkpt lat="50.404887199401855" lon="4.689574241638184">
        </trkpt>
      <trkpt lat="50.40261276997626" lon="4.692513942718506">
        </trkpt>
      <trkpt lat="50.39894342422485" lon="4.694359302520752">
        </trkpt>
      <trkpt lat="50.39613255299628" lon="4.695625305175781">
        </trkpt>
      <trkpt lat="50.39523124694824" lon="4.691462516784668">
        </trkpt>
      <trkpt lat="50.395284639671445" lon="4.689187416806817">
        </trkpt>
      <trkpt lat="50.393611108884215" lon="4.686645185574889">
        </trkpt>
      <trkpt lat="50.38992617279291" lon="4.684958243742585">
        </trkpt>
      <trkpt lat="50.38697004318237" lon="4.68191385269165">
        </trkpt>
      <trkpt lat="50.38349373266101" lon="4.678448271006346">
        </trkpt>
      <trkpt lat="50.38033962249756" lon="4.676957130432129">
        </trkpt>
      <trkpt lat="50.376949310302734" lon="4.678030014038086">
        </trkpt>
      <trkpt lat="50.37336587905884" lon="4.680883884429932">
        </trkpt>
      <trkpt lat="50.36988244391978" lon="4.681012546643615">
        </trkpt>
      <trkpt lat="50.3667901083827" lon="4.678250206634402">
        </trkpt>
      <trkpt lat="50.363681176677346" lon="4.674532329663634">
        </trkpt>
      <trkpt lat="50.36055556498468" lon="4.674124717712402">
        </trkpt>
      <trkpt lat="50.35761569626629" lon="4.6769145503640175">
        </trkpt>
      <trkpt lat="50.35573588684201" lon="4.681938076391816">
        </trkpt>
      <trkpt lat="50.354344407096505" lon="4.687557807192206">
        </trkpt>
      <trkpt lat="50.35299198701978" lon="4.693045690655708">
        </trkpt>
      <trkpt lat="50.35094956867397" lon="4.6972347144037485">
        </trkpt>
      <trkpt lat="50.34778825007379" lon="4.698157226666808">
        </trkpt>
      <trkpt lat="50.34504099749029" lon="4.695652378723025">
        </trkpt>
      <trkpt lat="50.34334667958319" lon="4.693136215209961">
        </trkpt>
      <trkpt lat="50.34045794047415" lon="4.688873682171106">
        </trkpt>
      <trkpt lat="50.33729142509401" lon="4.684202698990703">
        </trkpt>
      <trkpt lat="50.33421367406845" lon="4.68041131272912">
        </trkpt>
      <trkpt lat="50.33075152896345" lon="4.676444996148348">
        </trkpt>
      <trkpt lat="50.328495875000954" lon="4.673861358314753">
        </trkpt>
      <trkpt lat="50.32527454197407" lon="4.67016083188355">
        </trkpt>
      <trkpt lat="50.32197383232415" lon="4.666395764797926">
        </trkpt>
      <trkpt lat="50.32064437866211" lon="4.663374423980713">
        </trkpt>
      <trkpt lat="50.32012947835028" lon="4.658782482147217">
        </trkpt>
      <trkpt lat="50.319013595581055" lon="4.654490947723389">
        </trkpt>
      <trkpt lat="50.31669046729803" lon="4.650933668017387">
        </trkpt>
      <trkpt lat="50.31418561935425" lon="4.645779132843018">
        </trkpt>
      <trkpt lat="50.31134239397943" lon="4.642163431271911">
        </trkpt>
      <trkpt lat="50.30928027816117" lon="4.637422375380993">
        </trkpt>
      <trkpt lat="50.30690752901137" lon="4.632052509114146">
        </trkpt>
      <trkpt lat="50.30499704182148" lon="4.626611145213246">
        </trkpt>
      <trkpt lat="50.302662178874016" lon="4.622162031009793">
        </trkpt>
      <trkpt lat="50.300538539886475" lon="4.617927074432373">
        </trkpt>
      <trkpt lat="50.29819973744452" lon="4.61726188659668">
        </trkpt>
      <trkpt lat="50.295045375823975" lon="4.615373611450195">
        </trkpt>
      <trkpt lat="50.29223442077637" lon="4.615824222564697">
        </trkpt>
      <trkpt lat="50.288758277893066" lon="4.612948894500732">
        </trkpt>
      <trkpt lat="50.28564943000674" lon="4.610248999670148">
        </trkpt>
      <trkpt lat="50.282600009813905" lon="4.6065545082092285">
        </trkpt>
      <trkpt lat="50.278329933062196" lon="4.606447219848633">
        </trkpt>
      <trkpt lat="50.27494724839926" lon="4.606330124661326">
        </trkpt>
      <trkpt lat="50.27070248499513" lon="4.606132814660668">
        </trkpt>
      <trkpt lat="50.26669987477362" lon="4.605867862701416">
        </trkpt>
      <trkpt lat="50.26303740218282" lon="4.60440119728446">
        </trkpt>
      <trkpt lat="50.25961867533624" lon="4.604294244199991">
        </trkpt>
      <trkpt lat="50.256281504407525" lon="4.6052895952016115">
        </trkpt>
      <trkpt lat="50.253889141604304" lon="4.603507183492184">
        </trkpt>
      <trkpt lat="50.2526771184057" lon="4.60049263201654">
        </trkpt>
      <trkpt lat="50.25155042298138" lon="4.596017869189382">
        </trkpt>
      <trkpt lat="50.250835279002786" lon="4.590987889096141">
        </trkpt>
      <trkpt lat="50.25043487548828" lon="4.586427211761475">
        </trkpt>
      <trkpt lat="50.24848029948771" lon="4.5817492716014385">
        </trkpt>
      <trkpt lat="50.24650820530951" lon="4.578702449798584">
        </trkpt>
      <trkpt lat="50.2432725392282" lon="4.575879173353314">
        </trkpt>
      <trkpt lat="50.239920699968934" lon="4.572715759277344">
        </trkpt>
      <trkpt lat="50.2364066708833" lon="4.569006012752652">
        </trkpt>
      <trkpt lat="50.233139991760254" lon="4.566407203674316">
        </trkpt>
      <trkpt lat="50.22998571395874" lon="4.563703536987305">
        </trkpt>
      <trkpt lat="50.22794723510742" lon="4.5629096031188965">
        </trkpt>
      <trkpt lat="50.227389335632324" lon="4.56007719039917">
        </trkpt>
      <trkpt lat="50.22502899169922" lon="4.555807113647461">
        </trkpt>
      <trkpt lat="50.22322244010866" lon="4.549767952412367">
        </trkpt>
      <trkpt lat="50.221291752532125" lon="4.544494058936834">
        </trkpt>
      <trkpt lat="50.2199565153569" lon="4.538941383361816">
        </trkpt>
      <trkpt lat="50.21921396255493" lon="4.533405303955078">
        </trkpt>
      <trkpt lat="50.21732577122748" lon="4.5308518409729">
        </trkpt>
      <trkpt lat="50.21674633026123" lon="4.5279765129089355">
        </trkpt>
      <trkpt lat="50.21554470062256" lon="4.521989822387695">
        </trkpt>
      <trkpt lat="50.21539952605963" lon="4.516519792377949">
        </trkpt>
      <trkpt lat="50.21506651304662" lon="4.510809537023306">
        </trkpt>
      <trkpt lat="50.213426258414984" lon="4.5082733407616615">
        </trkpt>
      <trkpt lat="50.21080993115902" lon="4.506699973717332">
        </trkpt>
      <trkpt lat="50.20794969052076" lon="4.504595277830958">
        </trkpt>
      <trkpt lat="50.20608739927411" lon="4.501654906198382">
        </trkpt>
      <trkpt lat="50.204966152086854" lon="4.498708248138428">
        </trkpt>
      <trkpt lat="50.20291652530432" lon="4.494276903569698">
        </trkpt>
      <trkpt lat="50.19947265274823" lon="4.491312224417925">
        </trkpt>
      <trkpt lat="50.196704948320985" lon="4.489395618438721">
        </trkpt>
      <trkpt lat="50.193362748250365" lon="4.486166154965758">
        </trkpt>
      <trkpt lat="50.19005298614502" lon="4.4849324226379395">
        </trkpt>
      <trkpt lat="50.18915981054306" lon="4.480957556515932">
        </trkpt>
      <trkpt lat="50.188679778948426" lon="4.4777655601501465">
        </trkpt>
      <trkpt lat="50.18658338114619" lon="4.473251402378082">
        </trkpt>
      <trkpt lat="50.184302162379026" lon="4.4689783081412315">
        </trkpt>
      <trkpt lat="50.18183469772339" lon="4.467916488647461">
        </trkpt>
      <trkpt lat="50.17868025228381" lon="4.466617293655872">
        </trkpt>
      <trkpt lat="50.17737150192261" lon="4.46519136428833">
        </trkpt>
      <trkpt lat="50.17735012806952" lon="4.461028575897217">
        </trkpt>
      <trkpt lat="50.176016399636865" lon="4.4565297570079565">
        </trkpt>
      <trkpt lat="50.17353057861328" lon="4.452059268951416">
        </trkpt>
      <trkpt lat="50.17354751005769" lon="4.445872418582439">
        </trkpt>
      <trkpt lat="50.17475366592407" lon="4.4400858879089355">
        </trkpt>
      <trkpt lat="50.17374515533447" lon="4.435172080993652">
        </trkpt>
      <trkpt lat="50.1721463073045" lon="4.430235810577869">
        </trkpt>
      <trkpt lat="50.17185713164508" lon="4.427239112555981">
        </trkpt>
      <trkpt lat="50.17167801037431" lon="4.423669679090381">
        </trkpt>
      <trkpt lat="50.1715350151062" lon="4.418527716770768">
        </trkpt>
      <trkpt lat="50.171685218811035" lon="4.413800239562988">
        </trkpt>
      <trkpt lat="50.173208797350526" lon="4.410152435302734">
        </trkpt>
      <trkpt lat="50.17369167879224" lon="4.409062955528498">
        </trkpt>
      <trkpt lat="50.17389535903931" lon="4.408543109893799">
        </trkpt>
      <trkpt lat="50.173607943579555" lon="4.407532503828406">
        </trkpt>
      <trkpt lat="50.172736728563905" lon="4.405345916748047">
        </trkpt>
      <trkpt lat="50.1692796126008" lon="4.401566265150905">
        </trkpt>
      <trkpt lat="50.16788729466498" lon="4.396677017211914">
        </trkpt>
      <trkpt lat="50.16702546738088" lon="4.391561625525355">
        </trkpt>
      <trkpt lat="50.166943073272705" lon="4.38554048538208">
        </trkpt>
      <trkpt lat="50.166020477190614" lon="4.380133152008057">
        </trkpt>
      <trkpt lat="50.16445222310722" lon="4.374904604628682">
        </trkpt>
      <trkpt lat="50.162797216326" lon="4.369866829365492">
        </trkpt>
      <trkpt lat="50.160934925079346" lon="4.364039897918701">
        </trkpt>
      <trkpt lat="50.158797204494476" lon="4.358574980869889">
        </trkpt>
      <trkpt lat="50.15730857849121" lon="4.354405403137207">
        </trkpt>
      <trkpt lat="50.15544150955975" lon="4.349844893440604">
        </trkpt>
      <trkpt lat="50.15434951521456" lon="4.344437308609486">
        </trkpt>
      <trkpt lat="50.1531457901001" lon="4.340071678161621">
        </trkpt>
      <trkpt lat="50.153703689575195" lon="4.334514141082764">
        </trkpt>
      <trkpt lat="50.15125734731555" lon="4.331005224958062">
        </trkpt>
      <trkpt lat="50.15162229537964" lon="4.327229177579284">
        </trkpt>
      <trkpt lat="50.150955179706216" lon="4.327832004055381">
        </trkpt>
      <trkpt lat="50.15057858079672" lon="4.324484774842858">
        </trkpt>
      <trkpt lat="50.150392167270184" lon="4.32021520100534">
        </trkpt>
      <trkpt lat="50.14958725310862" lon="4.314424563199282">
        </trkpt>
      <trkpt lat="50.14842334203422" lon="4.308640714734793">
        </trkpt>
      <trkpt lat="50.148961544036865" lon="4.303185939788818">
        </trkpt>
      <trkpt lat="50.15047456137836" lon="4.297711970284581">
        </trkpt>
      <trkpt lat="50.152373649179935" lon="4.292825739830732">
        </trkpt>
      <trkpt lat="50.153186274692416" lon="4.2917801812291145">
        </trkpt>
      <trkpt lat="50.15208992175758" lon="4.289649920538068">
        </trkpt>
      <trkpt lat="50.150469951331615" lon="4.28614997304976">
        </trkpt>
      <trkpt lat="50.1467958278954" lon="4.28444953635335">
        </trkpt>
      <trkpt lat="50.14392242766917" lon="4.280454721301794">
        </trkpt>
      <trkpt lat="50.14222995378077" lon="4.277039933949709">
        </trkpt>
      <trkpt lat="50.142538491636515" lon="4.2734611965715885">
        </trkpt>
      <trkpt lat="50.14271501451731" lon="4.271398410201073">
        </trkpt>
      <trkpt lat="50.14346997253597" lon="4.26833993755281">
        </trkpt>
      <trkpt lat="50.14369536191225" lon="4.26409182138741">
        </trkpt>
      <trkpt lat="50.144476471468806" lon="4.258437138050795">
        </trkpt>
      <trkpt lat="50.14423046261072" lon="4.252386661246419">
        </trkpt>
      <trkpt lat="50.14443992637098" lon="4.247099943459034">
        </trkpt>
      <trkpt lat="50.141638945788145" lon="4.241809286177158">
        </trkpt>
      <trkpt lat="50.13929997570813" lon="4.237339971587062">
        </trkpt>
      <trkpt lat="50.138004636392" lon="4.23226841725409">
        </trkpt>
      <trkpt lat="50.137980161234736" lon="4.232184598222375">
        </trkpt>
      <trkpt lat="50.13527129776776" lon="4.227963052690029">
        </trkpt>
      <trkpt lat="50.13401057571173" lon="4.223800599575043">
        </trkpt>
      <trkpt lat="50.132419941946864" lon="4.220079956576228">
        </trkpt>
      <trkpt lat="50.13076619245112" lon="4.2158483527600765">
        </trkpt>
      <trkpt lat="50.128529984503984" lon="4.214249923825264">
        </trkpt>
      <trkpt lat="50.12551995925605" lon="4.213249962776899">
        </trkpt>
      <trkpt lat="50.125159956514835" lon="4.209709949791431">
        </trkpt>
      <trkpt lat="50.124761229380965" lon="4.204364223405719">
        </trkpt>
      <trkpt lat="50.123549960553646" lon="4.1999599523842335">
        </trkpt>
      <trkpt lat="50.12148977257311" lon="4.195801857858896">
        </trkpt>
      <trkpt lat="50.12150536291301" lon="4.1910286154598">
        </trkpt>
      <trkpt lat="50.12067999690771" lon="4.186109947040677">
        </trkpt>
      <trkpt lat="50.1201799325645" lon="4.180989945307374">
        </trkpt>
      <trkpt lat="50.11911534704268" lon="4.1778892278671265">
        </trkpt>
      <trkpt lat="50.11652994900942" lon="4.179209964349866">
        </trkpt>
      <trkpt lat="50.113966427743435" lon="4.182005748152733">
        </trkpt>
      <trkpt lat="50.11074995622039" lon="4.183889999985695">
        </trkpt>
      <trkpt lat="50.10844434611499" lon="4.188299970701337">
        </trkpt>
      <trkpt lat="50.10713995434344" lon="4.192289924249053">
        </trkpt>
      <trkpt lat="50.10454994626343" lon="4.193229954689741">
        </trkpt>
      <trkpt lat="50.10088076815009" lon="4.1934227384626865">
        </trkpt>
      <trkpt lat="50.09737679734826" lon="4.193991031497717">
        </trkpt>
      <trkpt lat="50.09486993774772" lon="4.195169946178794">
        </trkpt>
      <trkpt lat="50.09195890277624" lon="4.1935034561902285">
        </trkpt>
      <trkpt lat="50.08819257840514" lon="4.193176478147507">
        </trkpt>
      <trkpt lat="50.08463999256492" lon="4.192149946466088">
        </trkpt>
      <trkpt lat="50.08160591125488" lon="4.190812110900879">
        </trkpt>
      <trkpt lat="50.07891163229942" lon="4.188280021771789">
        </trkpt>
      <trkpt lat="50.075515285134315" lon="4.185912385582924">
        </trkpt>
      <trkpt lat="50.072153555229306" lon="4.184364248067141">
        </trkpt>
      <trkpt lat="50.069520212709904" lon="4.183050720021129">
        </trkpt>
      <trkpt lat="50.067443596199155" lon="4.177561411634088">
        </trkpt>
      <trkpt lat="50.065293218940496" lon="4.178098272532225">
        </trkpt>
      <trkpt lat="50.064847469329834" lon="4.177637100219727">
        </trkpt>
      <trkpt lat="50.06380316801369" lon="4.174553146585822">
        </trkpt>
      <trkpt lat="50.062251007184386" lon="4.171121092513204">
        </trkpt>
      <trkpt lat="50.06020079366863" lon="4.169229883700609">
        </trkpt>
      <trkpt lat="50.059451200068" lon="4.167863633483648">
        </trkpt>
      <trkpt lat="50.057351030409336" lon="4.163537565618753">
        </trkpt>
      <trkpt lat="50.056049823760986" lon="4.1590118408203125">
        </trkpt>
      <trkpt lat="50.05533082410693" lon="4.1536465007811785">
        </trkpt>
      <trkpt lat="50.05403649061918" lon="4.148405967280269">
        </trkpt>
      <trkpt lat="50.05318514071405" lon="4.142724545672536">
        </trkpt>
      <trkpt lat="50.051766503602266" lon="4.138009222224355">
        </trkpt>
      <trkpt lat="50.04927749745548" lon="4.133528508245945">
        </trkpt>
      <trkpt lat="50.04675873555243" lon="4.129378795623779">
        </trkpt>
      <trkpt lat="50.04485931247473" lon="4.124582586809993">
        </trkpt>
      <trkpt lat="50.04229545593262" lon="4.121020948514342">
        </trkpt>
      <trkpt lat="50.04027851857245" lon="4.118542671203613">
        </trkpt>
      <trkpt lat="50.03869065083563" lon="4.115281105041504">
        </trkpt>
      <trkpt lat="50.03745381720364" lon="4.110519094392657">
        </trkpt>
      <trkpt lat="50.0358793605119" lon="4.106039134785533">
        </trkpt>
      <trkpt lat="50.03396987915039" lon="4.102513790130615">
        </trkpt>
      <trkpt lat="50.03049977123737" lon="4.100876804441214">
        </trkpt>
      <trkpt lat="50.02693176269531" lon="4.100024700164795">
        </trkpt>
      <trkpt lat="50.024325577542186" lon="4.0962805878371">
        </trkpt>
      <trkpt lat="50.0224737636745" lon="4.091418916359544">
        </trkpt>
      <trkpt lat="50.02163104712963" lon="4.086674842983484">
        </trkpt>
      <trkpt lat="50.020908024162054" lon="4.080451866611838">
        </trkpt>
      <trkpt lat="50.02227544784546" lon="4.075605869293213">
        </trkpt>
      <trkpt lat="50.02122821286321" lon="4.0722927544265985">
        </trkpt>
      <trkpt lat="50.0190251134336" lon="4.073123401030898">
        </trkpt>
      <trkpt lat="50.017962120473385" lon="4.072764404118061">
        </trkpt>
      <trkpt lat="50.016679018735886" lon="4.067459832876921">
        </trkpt>
      <trkpt lat="50.01562365330756" lon="4.063568115234375">
        </trkpt>
      <trkpt lat="50.0151086691767" lon="4.0596842765808105">
        </trkpt>
      <trkpt lat="50.01504345797002" lon="4.0593155566602945">
        </trkpt>
      <trkpt lat="50.01280641183257" lon="4.062802596017718">
        </trkpt>
      <trkpt lat="50.00998020172119" lon="4.063117504119873">
        </trkpt>
      <trkpt lat="50.00807155855" lon="4.063745979219675">
        </trkpt>
    </trkseg>
  </trk>
</gpx>