<?xml version='1.0' encoding='UTF-8'?>
<gpx xmlns="http://www.topografix.com/GPX/1/1" xmlns:xsi="http://www.w3.org/2001/XMLSchema-instance" version="1.1" creator="https://www.komoot.de" xsi:schemaLocation="http://www.topografix.com/GPX/1/1 http://www.topografix.com/GPX/1/1/gpx.xsd">
  <metadata>
    <name>Pe 10.7.</name>
    <author>
      <link href="https://www.komoot.de">
        <text>komoot</text>
        <type>text/html</type>
      </link>
    </author>
  </metadata>
  <wpt lat="49.902537" lon="3.836018">
    <name>Biotaukopaikka</name>
    <desc>Biotauko</desc>
    <sym>Restroom</sym>
  </wpt>
  <wpt lat="49.805936" lon="3.666854">
    <name>Välipalatauko</name>
    <desc>Välipalatauko vasemmalla</desc>
    <sym>Restaurant</sym>
  </wpt>
  <wpt lat="49.704839" lon="3.497120">
    <name>Biotaukopaikka</name>
    <desc>Biotauko</desc>
    <sym>Restroom</sym>
  </wpt>
  <wpt lat="49.687715" lon="3.455059">
    <name>Biotaukopaikka</name>
    <desc>Biotauko</desc>
    <sym>Restroom</sym>
  </wpt>
  <wpt lat="49.605164" lon="3.332601">
    <name>Vara lounaspaikka</name>
    <desc>Vara lounaspaikka</desc>
    <sym>Restaurant</sym>
  </wpt>
  <wpt lat="49.602488" lon="3.279401">
    <name>Lounaspaikka</name>
    <desc>Lounas</desc>
    <sym>Restaurant</sym>
  </wpt>
  <wpt lat="49.530521" lon="3.073085">
    <name>Biotaukopaikka</name>
    <desc>Biotaukio</desc>
    <sym>Restroom</sym>
  </wpt>
  <wpt lat="49.436667" lon="2.875525">
    <name>Välipalataukopaikka</name>
    <desc>Välipalatauko</desc>
    <sym>Restaurant</sym>
  </wpt>
  <wpt lat="49.435474" lon="2.875991">
    <name>Taka-auto eri reitille</name>
    <desc>Taka-auto eri reitille</desc>
    <sym>Flag, Blue</sym>
  </wpt>
  <wpt lat="49.351719" lon="2.770129">
    <name>Taka-auto samalle reitille</name>
    <desc>Taka-auto samalle reitille</desc>
    <sym>Flag, Blue</sym>
  </wpt>
  <wpt lat="49.348146" lon="2.771544">
    <name>Biotaukopaikka</name>
    <desc>Biotauko. Tästä viimeistään taka-auton kanssa samaa tahtia</desc>
    <sym>Restroom</sym>
  </wpt>
  <trk>
    <name>Pe 10.7.</name>
    <type>racebike</type>
    <trkseg>
      <trkpt lat="50.008028" lon="4.063568">
        </trkpt>
      <trkpt lat="50.006944" lon="4.062233">
        </trkpt>
      <trkpt lat="50.005279" lon="4.060847">
        </trkpt>
      <trkpt lat="50.004135" lon="4.056196">
        </trkpt>
      <trkpt lat="50.005120" lon="4.048541">
        </trkpt>
      <trkpt lat="50.004655" lon="4.048306">
        </trkpt>
      <trkpt lat="50.002335" lon="4.046118">
        </trkpt>
      <trkpt lat="49.999767" lon="4.039067">
        </trkpt>
      <trkpt lat="49.987906" lon="4.034715">
        </trkpt>
      <trkpt lat="49.983436" lon="4.033640">
        </trkpt>
      <trkpt lat="49.975975" lon="4.022023">
        </trkpt>
      <trkpt lat="49.967235" lon="4.016457">
        </trkpt>
      <trkpt lat="49.959960" lon="4.013131">
        </trkpt>
      <trkpt lat="49.953558" lon="4.009178">
        </trkpt>
      <trkpt lat="49.949134" lon="4.009325">
        </trkpt>
      <trkpt lat="49.943506" lon="4.009252">
        </trkpt>
      <trkpt lat="49.938364" lon="4.003810">
        </trkpt>
      <trkpt lat="49.935058" lon="4.000696">
        </trkpt>
      <trkpt lat="49.933673" lon="3.998025">
        </trkpt>
      <trkpt lat="49.933726" lon="3.993538">
        </trkpt>
      <trkpt lat="49.928122" lon="3.972285">
        </trkpt>
      <trkpt lat="49.925207" lon="3.962796">
        </trkpt>
      <trkpt lat="49.925682" lon="3.956777">
        </trkpt>
      <trkpt lat="49.921524" lon="3.948579">
        </trkpt>
      <trkpt lat="49.918869" lon="3.940455">
        </trkpt>
      <trkpt lat="49.913181" lon="3.934889">
        </trkpt>
      <trkpt lat="49.912525" lon="3.929183">
        </trkpt>
      <trkpt lat="49.908197" lon="3.915381">
        </trkpt>
      <trkpt lat="49.905408" lon="3.913684">
        </trkpt>
      <trkpt lat="49.902557" lon="3.914267">
        </trkpt>
      <trkpt lat="49.899570" lon="3.909871">
        </trkpt>
      <trkpt lat="49.898887" lon="3.891678">
        </trkpt>
      <trkpt lat="49.900107" lon="3.873854">
        </trkpt>
      <trkpt lat="49.904041" lon="3.860734">
        </trkpt>
      <trkpt lat="49.904674" lon="3.855413">
        </trkpt>
      <trkpt lat="49.904043" lon="3.853355">
        </trkpt>
      <trkpt lat="49.902677" lon="3.850558">
        </trkpt>
      <trkpt lat="49.901889" lon="3.839974">
        </trkpt>
      <trkpt lat="49.901799" lon="3.828489">
        </trkpt>
      <trkpt lat="49.902209" lon="3.821646">
        </trkpt>
      <trkpt lat="49.901154" lon="3.818700">
        </trkpt>
      <trkpt lat="49.904006" lon="3.799420">
        </trkpt>
      <trkpt lat="49.905635" lon="3.793754">
        </trkpt>
      <trkpt lat="49.905321" lon="3.788847">
        </trkpt>
      <trkpt lat="49.904120" lon="3.780174">
        </trkpt>
      <trkpt lat="49.901336" lon="3.777708">
        </trkpt>
      <trkpt lat="49.899392" lon="3.774814">
        </trkpt>
      <trkpt lat="49.894277" lon="3.774877">
        </trkpt>
      <trkpt lat="49.886142" lon="3.772179">
        </trkpt>
      <trkpt lat="49.876379" lon="3.757010">
        </trkpt>
      <trkpt lat="49.871082" lon="3.753044">
        </trkpt>
      <trkpt lat="49.866652" lon="3.749689">
        </trkpt>
      <trkpt lat="49.861469" lon="3.747454">
        </trkpt>
      <trkpt lat="49.854212" lon="3.739713">
        </trkpt>
      <trkpt lat="49.844358" lon="3.727428">
        </trkpt>
      <trkpt lat="49.837297" lon="3.725965">
        </trkpt>
      <trkpt lat="49.833320" lon="3.720577">
        </trkpt>
      <trkpt lat="49.830802" lon="3.718872">
        </trkpt>
      <trkpt lat="49.825878" lon="3.715783">
        </trkpt>
      <trkpt lat="49.825159" lon="3.712516">
        </trkpt>
      <trkpt lat="49.824638" lon="3.708274">
        </trkpt>
      <trkpt lat="49.823976" lon="3.705789">
        </trkpt>
      <trkpt lat="49.823283" lon="3.701460">
        </trkpt>
      <trkpt lat="49.820855" lon="3.693806">
        </trkpt>
      <trkpt lat="49.811861" lon="3.678721">
        </trkpt>
      <trkpt lat="49.806713" lon="3.668255">
        </trkpt>
      <trkpt lat="49.795680" lon="3.643681">
        </trkpt>
      <trkpt lat="49.784974" lon="3.630237">
        </trkpt>
      <trkpt lat="49.776544" lon="3.622693">
        </trkpt>
      <trkpt lat="49.771640" lon="3.616283">
        </trkpt>
      <trkpt lat="49.770660" lon="3.610398">
        </trkpt>
      <trkpt lat="49.765246" lon="3.593295">
        </trkpt>
      <trkpt lat="49.760233" lon="3.585035">
        </trkpt>
      <trkpt lat="49.755097" lon="3.573078">
        </trkpt>
      <trkpt lat="49.752507" lon="3.569385">
        </trkpt>
      <trkpt lat="49.743787" lon="3.557475">
        </trkpt>
      <trkpt lat="49.740840" lon="3.554935">
        </trkpt>
      <trkpt lat="49.736469" lon="3.549892">
        </trkpt>
      <trkpt lat="49.726864" lon="3.540311">
        </trkpt>
      <trkpt lat="49.721998" lon="3.535003">
        </trkpt>
      <trkpt lat="49.710554" lon="3.520582">
        </trkpt>
      <trkpt lat="49.705340" lon="3.499297">
        </trkpt>
      <trkpt lat="49.703821" lon="3.488299">
        </trkpt>
      <trkpt lat="49.702109" lon="3.485004">
        </trkpt>
      <trkpt lat="49.702094" lon="3.482525">
        </trkpt>
      <trkpt lat="49.696963" lon="3.484008">
        </trkpt>
      <trkpt lat="49.691544" lon="3.484642">
        </trkpt>
      <trkpt lat="49.689407" lon="3.484097">
        </trkpt>
      <trkpt lat="49.691297" lon="3.470467">
        </trkpt>
      <trkpt lat="49.691367" lon="3.466805">
        </trkpt>
      <trkpt lat="49.687715" lon="3.455059">
        </trkpt>
      <trkpt lat="49.683893" lon="3.451511">
        </trkpt>
      <trkpt lat="49.678390" lon="3.440811">
        </trkpt>
      <trkpt lat="49.678592" lon="3.437108">
        </trkpt>
      <trkpt lat="49.675641" lon="3.415573">
        </trkpt>
      <trkpt lat="49.668011" lon="3.396247">
        </trkpt>
      <trkpt lat="49.665427" lon="3.388076">
        </trkpt>
      <trkpt lat="49.660409" lon="3.382088">
        </trkpt>
      <trkpt lat="49.658809" lon="3.381446">
        </trkpt>
      <trkpt lat="49.653810" lon="3.376723">
        </trkpt>
      <trkpt lat="49.647792" lon="3.374000">
        </trkpt>
      <trkpt lat="49.644453" lon="3.371729">
        </trkpt>
      <trkpt lat="49.639576" lon="3.367526">
        </trkpt>
      <trkpt lat="49.632808" lon="3.362401">
        </trkpt>
      <trkpt lat="49.629080" lon="3.360548">
        </trkpt>
      <trkpt lat="49.627792" lon="3.356762">
        </trkpt>
      <trkpt lat="49.624263" lon="3.346168">
        </trkpt>
      <trkpt lat="49.620861" lon="3.344169">
        </trkpt>
      <trkpt lat="49.619467" lon="3.340878">
        </trkpt>
      <trkpt lat="49.616790" lon="3.341035">
        </trkpt>
      <trkpt lat="49.611989" lon="3.341940">
        </trkpt>
      <trkpt lat="49.606571" lon="3.339027">
        </trkpt>
      <trkpt lat="49.605360" lon="3.335631">
        </trkpt>
      <trkpt lat="49.604934" lon="3.321290">
        </trkpt>
      <trkpt lat="49.603223" lon="3.286333">
        </trkpt>
      <trkpt lat="49.601594" lon="3.270608">
        </trkpt>
      <trkpt lat="49.600451" lon="3.263469">
        </trkpt>
      <trkpt lat="49.598101" lon="3.253627">
        </trkpt>
      <trkpt lat="49.597490" lon="3.247578">
        </trkpt>
      <trkpt lat="49.595576" lon="3.242902">
        </trkpt>
      <trkpt lat="49.593446" lon="3.233183">
        </trkpt>
      <trkpt lat="49.594865" lon="3.226568">
        </trkpt>
      <trkpt lat="49.592918" lon="3.218114">
        </trkpt>
      <trkpt lat="49.589768" lon="3.212808">
        </trkpt>
      <trkpt lat="49.587744" lon="3.208104">
        </trkpt>
      <trkpt lat="49.583939" lon="3.201180">
        </trkpt>
      <trkpt lat="49.581780" lon="3.199149">
        </trkpt>
      <trkpt lat="49.577780" lon="3.185775">
        </trkpt>
      <trkpt lat="49.574885" lon="3.170560">
        </trkpt>
      <trkpt lat="49.571428" lon="3.166625">
        </trkpt>
      <trkpt lat="49.569518" lon="3.162815">
        </trkpt>
      <trkpt lat="49.568420" lon="3.154335">
        </trkpt>
      <trkpt lat="49.570863" lon="3.144015">
        </trkpt>
      <trkpt lat="49.569742" lon="3.135079">
        </trkpt>
      <trkpt lat="49.568297" lon="3.117984">
        </trkpt>
      <trkpt lat="49.568707" lon="3.115015">
        </trkpt>
      <trkpt lat="49.567277" lon="3.111427">
        </trkpt>
      <trkpt lat="49.562830" lon="3.112682">
        </trkpt>
      <trkpt lat="49.556955" lon="3.109875">
        </trkpt>
      <trkpt lat="49.551937" lon="3.109681">
        </trkpt>
      <trkpt lat="49.542940" lon="3.108066">
        </trkpt>
      <trkpt lat="49.533136" lon="3.103582">
        </trkpt>
      <trkpt lat="49.531058" lon="3.099960">
        </trkpt>
      <trkpt lat="49.529834" lon="3.094004">
        </trkpt>
      <trkpt lat="49.530480" lon="3.086352">
        </trkpt>
      <trkpt lat="49.531323" lon="3.074840">
        </trkpt>
      <trkpt lat="49.526689" lon="3.065707">
        </trkpt>
      <trkpt lat="49.520363" lon="3.050043">
        </trkpt>
      <trkpt lat="49.511986" lon="3.030689">
        </trkpt>
      <trkpt lat="49.513207" lon="3.025676">
        </trkpt>
      <trkpt lat="49.515172" lon="3.021129">
        </trkpt>
      <trkpt lat="49.515465" lon="3.011865">
        </trkpt>
      <trkpt lat="49.514568" lon="3.007048">
        </trkpt>
      <trkpt lat="49.511487" lon="2.998528">
        </trkpt>
      <trkpt lat="49.504960" lon="2.981721">
        </trkpt>
      <trkpt lat="49.500078" lon="2.975187">
        </trkpt>
      <trkpt lat="49.497120" lon="2.971184">
        </trkpt>
      <trkpt lat="49.493904" lon="2.966997">
        </trkpt>
      <trkpt lat="49.489048" lon="2.960333">
        </trkpt>
      <trkpt lat="49.486770" lon="2.958367">
        </trkpt>
      <trkpt lat="49.483725" lon="2.955929">
        </trkpt>
      <trkpt lat="49.480918" lon="2.953963">
        </trkpt>
      <trkpt lat="49.478202" lon="2.950500">
        </trkpt>
      <trkpt lat="49.466318" lon="2.944970">
        </trkpt>
      <trkpt lat="49.454353" lon="2.925141">
        </trkpt>
      <trkpt lat="49.445307" lon="2.893921">
        </trkpt>
      <trkpt lat="49.443931" lon="2.892061">
        </trkpt>
      <trkpt lat="49.441229" lon="2.886025">
        </trkpt>
      <trkpt lat="49.438572" lon="2.880549">
        </trkpt>
      <trkpt lat="49.438084" lon="2.877657">
        </trkpt>
      <trkpt lat="49.436745" lon="2.874704">
        </trkpt>
      <trkpt lat="49.436489" lon="2.876619">
        </trkpt>
      <trkpt lat="49.435707" lon="2.876692">
        </trkpt>
      <trkpt lat="49.436023" lon="2.874665">
        </trkpt>
      <trkpt lat="49.435210" lon="2.869284">
        </trkpt>
      <trkpt lat="49.433281" lon="2.865088">
        </trkpt>
      <trkpt lat="49.430729" lon="2.860604">
        </trkpt>
      <trkpt lat="49.432741" lon="2.857018">
        </trkpt>
      <trkpt lat="49.433456" lon="2.851914">
        </trkpt>
      <trkpt lat="49.433906" lon="2.850265">
        </trkpt>
      <trkpt lat="49.432521" lon="2.842888">
        </trkpt>
      <trkpt lat="49.429177" lon="2.837795">
        </trkpt>
      <trkpt lat="49.426698" lon="2.835024">
        </trkpt>
      <trkpt lat="49.423418" lon="2.830638">
        </trkpt>
      <trkpt lat="49.419655" lon="2.823776">
        </trkpt>
      <trkpt lat="49.418549" lon="2.821278">
        </trkpt>
      <trkpt lat="49.416658" lon="2.817379">
        </trkpt>
      <trkpt lat="49.413879" lon="2.812080">
        </trkpt>
      <trkpt lat="49.413043" lon="2.809153">
        </trkpt>
      <trkpt lat="49.412087" lon="2.803140">
        </trkpt>
      <trkpt lat="49.410222" lon="2.799342">
        </trkpt>
      <trkpt lat="49.406989" lon="2.798042">
        </trkpt>
      <trkpt lat="49.403086" lon="2.795719">
        </trkpt>
      <trkpt lat="49.399948" lon="2.791168">
        </trkpt>
      <trkpt lat="49.396073" lon="2.784664">
        </trkpt>
      <trkpt lat="49.391554" lon="2.782927">
        </trkpt>
      <trkpt lat="49.385660" lon="2.779560">
        </trkpt>
      <trkpt lat="49.378797" lon="2.778062">
        </trkpt>
      <trkpt lat="49.372560" lon="2.775784">
        </trkpt>
      <trkpt lat="49.365888" lon="2.769436">
        </trkpt>
      <trkpt lat="49.362007" lon="2.766020">
        </trkpt>
      <trkpt lat="49.358033" lon="2.766248">
        </trkpt>
      <trkpt lat="49.353615" lon="2.767682">
        </trkpt>
      <trkpt lat="49.352496" lon="2.770039">
        </trkpt>
      <trkpt lat="49.350002" lon="2.770144">
        </trkpt>
      <trkpt lat="49.339396" lon="2.767570">
        </trkpt>
      <trkpt lat="49.328671" lon="2.754435">
        </trkpt>
      <trkpt lat="49.324533" lon="2.748583">
        </trkpt>
      <trkpt lat="49.322899" lon="2.742448">
        </trkpt>
      <trkpt lat="49.319048" lon="2.739864">
        </trkpt>
      <trkpt lat="49.315185" lon="2.737884">
        </trkpt>
      <trkpt lat="49.310372" lon="2.729469">
        </trkpt>
      <trkpt lat="49.309101" lon="2.723822">
        </trkpt>
      <trkpt lat="49.307249" lon="2.719841">
        </trkpt>
      <trkpt lat="49.306635" lon="2.717321">
        </trkpt>
      <trkpt lat="49.309442" lon="2.700408">
        </trkpt>
      <trkpt lat="49.309197" lon="2.690920">
        </trkpt>
      <trkpt lat="49.308114" lon="2.685258">
        </trkpt>
      <trkpt lat="49.308419" lon="2.683213">
        </trkpt>
      <trkpt lat="49.311941" lon="2.679991">
        </trkpt>
      <trkpt lat="49.313213" lon="2.675140">
        </trkpt>
      <trkpt lat="49.315204" lon="2.667581">
        </trkpt>
      <trkpt lat="49.316063" lon="2.658368">
        </trkpt>
      <trkpt lat="49.319436" lon="2.652723">
        </trkpt>
      <trkpt lat="49.319576" lon="2.644070">
        </trkpt>
      <trkpt lat="49.317521" lon="2.631266">
        </trkpt>
      <trkpt lat="49.314764" lon="2.625976">
        </trkpt>
      <trkpt lat="49.309450" lon="2.623271">
        </trkpt>
      <trkpt lat="49.306428" lon="2.621436">
        </trkpt>
      <trkpt lat="49.303180" lon="2.617442">
        </trkpt>
      <trkpt lat="49.303413" lon="2.608837">
        </trkpt>
      <trkpt lat="49.302504" lon="2.605161">
        </trkpt>
      <trkpt lat="49.303593" lon="2.600475">
        </trkpt>
      <trkpt lat="49.307707" lon="2.597110">
        </trkpt>
      <trkpt lat="49.307536" lon="2.593083">
        </trkpt>
      <trkpt lat="49.307275" lon="2.590360">
        </trkpt>
      <trkpt lat="49.306766" lon="2.586240">
        </trkpt>
      <trkpt lat="49.305583" lon="2.577011">
        </trkpt>
      <trkpt lat="49.305972" lon="2.568731">
        </trkpt>
      <trkpt lat="49.305397" lon="2.548404">
        </trkpt>
      <trkpt lat="49.306054" lon="2.544950">
        </trkpt>
      <trkpt lat="49.303873" lon="2.540190">
        </trkpt>
      <trkpt lat="49.302633" lon="2.538029">
        </trkpt>
      <trkpt lat="49.301568" lon="2.535614">
        </trkpt>
      <trkpt lat="49.301462" lon="2.530364">
        </trkpt>
      <trkpt lat="49.300929" lon="2.523109">
        </trkpt>
      <trkpt lat="49.300632" lon="2.522524">
        </trkpt>
      <trkpt lat="49.299947" lon="2.520777">
        </trkpt>
      <trkpt lat="49.298901" lon="2.520047">
        </trkpt>
      <trkpt lat="49.298720" lon="2.518287">
        </trkpt>
      <trkpt lat="49.297759" lon="2.514253">
        </trkpt>
      <trkpt lat="49.295729" lon="2.509242">
        </trkpt>
      <trkpt lat="49.293897" lon="2.505033">
        </trkpt>
      <trkpt lat="49.291433" lon="2.502269">
        </trkpt>
      <trkpt lat="49.289875" lon="2.500515">
        </trkpt>
      <trkpt lat="49.288752" lon="2.500004">
        </trkpt>
    </trkseg>
  </trk>
</gpx>