<?xml version='1.0' encoding='UTF-8'?>
<gpx xmlns="http://www.topografix.com/GPX/1/1" xmlns:xsi="http://www.w3.org/2001/XMLSchema-instance" version="1.1" creator="https://www.komoot.de" xsi:schemaLocation="http://www.topografix.com/GPX/1/1 http://www.topografix.com/GPX/1/1/gpx.xsd">
  <metadata>
    <name>2026 Rynkeby Day3 Saerbeck-Roermond Janne edition v3</name>
    <author>
      <link href="https://www.komoot.de">
        <text>komoot</text>
        <type>text/html</type>
      </link>
    </author>
  </metadata>
  <wpt lat="52.020400" lon="7.444261">
    <name>BIO</name>
    <desc>BIO 2025</desc>
    <sym>Restroom</sym>
  </wpt>
  <wpt lat="51.931211" lon="7.314321">
    <name>Välihuolto 2025</name>
    <desc>Välihuolto</desc>
    <sym>Restaurant</sym>
  </wpt>
  <wpt lat="51.892353" lon="7.160618">
    <name>Tietyömaa-alue</name>
    <desc>Tälla alueella poikkeusjärjestelyjä tietöiden takia</desc>
    <sym>Flag, Blue</sym>
  </wpt>
  <wpt lat="51.855373" lon="7.072982">
    <name>Työmaa-alue päättyy</name>
    <sym>Flag, Blue</sym>
  </wpt>
  <wpt lat="51.852779" lon="6.965454">
    <name>BIO 2025</name>
    <desc>BIO</desc>
    <sym>Restroom</sym>
  </wpt>
  <wpt lat="51.839566" lon="6.867587">
    <name>Taka-auto jää</name>
    <desc>Taka-auto jää ja kokoontuu välihuoltoon</desc>
    <sym>Flag, Blue</sym>
  </wpt>
  <wpt lat="51.837305" lon="6.862560">
    <name>Taka-auto liittyy</name>
    <desc>Taka-auto liittyy huollossa</desc>
    <sym>Flag, Blue</sym>
  </wpt>
  <wpt lat="51.836918" lon="6.860632">
    <name>Välihuolto 2025</name>
    <desc>Välihuolto</desc>
    <sym>Restaurant</sym>
  </wpt>
  <wpt lat="51.825920" lon="6.851423">
    <name>Haastava risteys vasemmalle</name>
    <desc>Haastava risteys vasen</desc>
    <sym>Skull and Crossbones</sym>
  </wpt>
  <wpt lat="51.730189" lon="6.757052">
    <name>Vanha ja uusi eroaa</name>
    <sym>Flag, Blue</sym>
  </wpt>
  <wpt lat="51.703987" lon="6.703618">
    <name>BIO 2026</name>
    <desc>BIO 2026</desc>
    <sym>Restroom</sym>
  </wpt>
  <wpt lat="51.668141" lon="6.484391">
    <name>Välihuolto 2026</name>
    <desc>Välihuolto jompsis kumpsis puolto jokea</desc>
    <sym>Restaurant</sym>
  </wpt>
  <wpt lat="51.569751" lon="6.230644">
    <name>BIO 2026</name>
    <desc>BIO 2026</desc>
    <sym>Restroom</sym>
  </wpt>
  <wpt lat="51.530350" lon="6.194441">
    <name>Rajan ylitys Hollanti</name>
    <desc>Pyörätiepakko</desc>
    <sym>Crossing</sym>
  </wpt>
  <wpt lat="51.526637" lon="6.190809">
    <name>Taka-auto jää</name>
    <sym>Flag, Blue</sym>
  </wpt>
  <wpt lat="51.505512" lon="6.171625">
    <name>Segment end</name>
    <desc>Taka-auto liittyy</desc>
    <sym>Flag, Blue</sym>
  </wpt>
  <wpt lat="51.437089" lon="6.171812">
    <name>Välihuolto 2026</name>
    <desc>Välihuolto</desc>
    <sym>Restaurant</sym>
  </wpt>
  <wpt lat="51.402234" lon="6.160445">
    <name>BIO 2026</name>
    <desc>BIO 2026</desc>
    <sym>Restroom</sym>
  </wpt>
  <wpt lat="51.373959" lon="6.168808">
    <name>Taka-auto jää</name>
    <sym>Flag, Blue</sym>
  </wpt>
  <wpt lat="51.366939" lon="6.162354">
    <name>Taka-auto liittyy</name>
    <sym>Flag, Blue</sym>
  </wpt>
  <wpt lat="51.232255" lon="6.038808">
    <name>Taka-auto jää</name>
    <sym>Flag, Blue</sym>
  </wpt>
  <wpt lat="51.229883" lon="6.036271">
    <name>Taka-auto liittyy</name>
    <sym>Flag, Blue</sym>
  </wpt>
  <wpt lat="51.202174" lon="6.004125">
    <name>Checkpoint</name>
    <desc>Taka-auto jää ja lähtee hotellille</desc>
    <sym>Flag, Blue</sym>
  </wpt>
  <trk>
    <name>2026 Rynkeby Day3 Saerbeck-Roermond Janne edition v3</name>
    <type>racebike</type>
    <trkseg>
      <trkpt lat="52.151950" lon="7.683971">
        <ele>49.201792</ele>
        <time>2026-06-28T18:47:55.240Z</time>
      </trkpt>
      <trkpt lat="52.148561" lon="7.682236">
        <ele>47.741480</ele>
        <time>2026-06-28T18:48:56.423Z</time>
      </trkpt>
      <trkpt lat="52.130898" lon="7.664439">
        <ele>42.397485</ele>
        <time>2026-06-28T18:54:02.219Z</time>
      </trkpt>
      <trkpt lat="52.123770" lon="7.659088">
        <ele>48.365060</ele>
        <time>2026-06-28T18:56:25.238Z</time>
      </trkpt>
      <trkpt lat="52.108914" lon="7.629956">
        <ele>46.535286</ele>
        <time>2026-06-28T19:02:04.804Z</time>
      </trkpt>
      <trkpt lat="52.102918" lon="7.623904">
        <ele>47.704533</ele>
        <time>2026-06-28T19:03:56.574Z</time>
      </trkpt>
      <trkpt lat="52.100116" lon="7.617443">
        <ele>48.704315</ele>
        <time>2026-06-28T19:05:12.543Z</time>
      </trkpt>
      <trkpt lat="52.097703" lon="7.611468">
        <ele>48.941170</ele>
        <time>2026-06-28T19:06:23.568Z</time>
      </trkpt>
      <trkpt lat="52.095715" lon="7.610412">
        <ele>48.755681</ele>
        <time>2026-06-28T19:07:02.284Z</time>
      </trkpt>
      <trkpt lat="52.094327" lon="7.606582">
        <ele>43.049781</ele>
        <time>2026-06-28T19:07:31.444Z</time>
      </trkpt>
      <trkpt lat="52.094200" lon="7.604410">
        <ele>40.593364</ele>
        <time>2026-06-28T19:07:46.836Z</time>
      </trkpt>
      <trkpt lat="52.093082" lon="7.598587">
        <ele>42.040356</ele>
        <time>2026-06-28T19:08:51.317Z</time>
      </trkpt>
      <trkpt lat="52.093099" lon="7.592481">
        <ele>43.941060</ele>
        <time>2026-06-28T19:09:55.637Z</time>
      </trkpt>
      <trkpt lat="52.093552" lon="7.589605">
        <ele>44.247718</ele>
        <time>2026-06-28T19:10:25.730Z</time>
      </trkpt>
      <trkpt lat="52.090899" lon="7.587247">
        <ele>45.792582</ele>
        <time>2026-06-28T19:11:19.565Z</time>
      </trkpt>
      <trkpt lat="52.088007" lon="7.581781">
        <ele>46.999461</ele>
        <time>2026-06-28T19:12:30.393Z</time>
      </trkpt>
      <trkpt lat="52.082396" lon="7.578755">
        <ele>48.642917</ele>
        <time>2026-06-28T19:14:04.948Z</time>
      </trkpt>
      <trkpt lat="52.077564" lon="7.575980">
        <ele>49.731794</ele>
        <time>2026-06-28T19:15:28.131Z</time>
      </trkpt>
      <trkpt lat="52.076041" lon="7.566422">
        <ele>50.844536</ele>
        <time>2026-06-28T19:17:05.423Z</time>
      </trkpt>
      <trkpt lat="52.074398" lon="7.544120">
        <ele>48.319422</ele>
        <time>2026-06-28T19:21:05.287Z</time>
      </trkpt>
      <trkpt lat="52.069764" lon="7.535657">
        <ele>47.156743</ele>
        <time>2026-06-28T19:22:51.735Z</time>
      </trkpt>
      <trkpt lat="52.064254" lon="7.522455">
        <ele>47.787338</ele>
        <time>2026-06-28T19:25:22.043Z</time>
      </trkpt>
      <trkpt lat="52.057511" lon="7.504493">
        <ele>56.864614</ele>
        <time>2026-06-28T19:29:11.433Z</time>
      </trkpt>
      <trkpt lat="52.053068" lon="7.492958">
        <ele>63.157457</ele>
        <time>2026-06-28T19:31:41.657Z</time>
      </trkpt>
      <trkpt lat="52.052296" lon="7.487942">
        <ele>67.368274</ele>
        <time>2026-06-28T19:32:47.830Z</time>
      </trkpt>
      <trkpt lat="52.051824" lon="7.485902">
        <ele>67.684597</ele>
        <time>2026-06-28T19:33:13.586Z</time>
      </trkpt>
      <trkpt lat="52.045163" lon="7.487724">
        <ele>67.272177</ele>
        <time>2026-06-28T19:34:55.100Z</time>
      </trkpt>
      <trkpt lat="52.042491" lon="7.484092">
        <ele>75.973772</ele>
        <time>2026-06-28T19:36:23.666Z</time>
      </trkpt>
      <trkpt lat="52.037520" lon="7.474633">
        <ele>95.267285</ele>
        <time>2026-06-28T19:39:43.794Z</time>
      </trkpt>
      <trkpt lat="52.034701" lon="7.469114">
        <ele>87.222685</ele>
        <time>2026-06-28T19:40:33.566Z</time>
      </trkpt>
      <trkpt lat="52.031872" lon="7.456924">
        <ele>76.044319</ele>
        <time>2026-06-28T19:42:09.530Z</time>
      </trkpt>
      <trkpt lat="52.030651" lon="7.451836">
        <ele>72.813734</ele>
        <time>2026-06-28T19:42:52.111Z</time>
      </trkpt>
      <trkpt lat="52.027103" lon="7.449557">
        <ele>70.400773</ele>
        <time>2026-06-28T19:43:44.196Z</time>
      </trkpt>
      <trkpt lat="52.023588" lon="7.445813">
        <ele>69.570857</ele>
        <time>2026-06-28T19:44:53.405Z</time>
      </trkpt>
      <trkpt lat="52.016174" lon="7.441579">
        <ele>68.470156</ele>
        <time>2026-06-28T19:47:10.913Z</time>
      </trkpt>
      <trkpt lat="52.010658" lon="7.438585">
        <ele>69.093969</ele>
        <time>2026-06-28T19:48:42.197Z</time>
      </trkpt>
      <trkpt lat="52.006162" lon="7.435012">
        <ele>69.007634</ele>
        <time>2026-06-28T19:50:03.934Z</time>
      </trkpt>
      <trkpt lat="51.995663" lon="7.438455">
        <ele>69.159276</ele>
        <time>2026-06-28T19:53:03.479Z</time>
      </trkpt>
      <trkpt lat="51.989153" lon="7.428924">
        <ele>71.887134</ele>
        <time>2026-06-28T19:55:28.461Z</time>
      </trkpt>
      <trkpt lat="51.984809" lon="7.423106">
        <ele>75.695907</ele>
        <time>2026-06-28T19:57:07.973Z</time>
      </trkpt>
      <trkpt lat="51.980386" lon="7.416829">
        <ele>78.745676</ele>
        <time>2026-06-28T19:58:52.159Z</time>
      </trkpt>
      <trkpt lat="51.978510" lon="7.408742">
        <ele>91.117064</ele>
        <time>2026-06-28T20:01:18.540Z</time>
      </trkpt>
      <trkpt lat="51.977826" lon="7.404425">
        <ele>96.952478</ele>
        <time>2026-06-28T20:02:31.606Z</time>
      </trkpt>
      <trkpt lat="51.975964" lon="7.406054">
        <ele>101.074374</ele>
        <time>2026-06-28T20:03:26.513Z</time>
      </trkpt>
      <trkpt lat="51.970267" lon="7.407812">
        <ele>94.589691</ele>
        <time>2026-06-28T20:04:42.922Z</time>
      </trkpt>
      <trkpt lat="51.968259" lon="7.401429">
        <ele>98.801258</ele>
        <time>2026-06-28T20:06:08.125Z</time>
      </trkpt>
      <trkpt lat="51.967711" lon="7.395697">
        <ele>107.174339</ele>
        <time>2026-06-28T20:07:36.406Z</time>
      </trkpt>
      <trkpt lat="51.965010" lon="7.387869">
        <ele>121.003021</ele>
        <time>2026-06-28T20:09:54.049Z</time>
      </trkpt>
      <trkpt lat="51.960305" lon="7.380834">
        <ele>144.523863</ele>
        <time>2026-06-28T20:13:12.205Z</time>
      </trkpt>
      <trkpt lat="51.957651" lon="7.379864">
        <ele>156.154020</ele>
        <time>2026-06-28T20:15:22.574Z</time>
      </trkpt>
      <trkpt lat="51.954475" lon="7.375378">
        <ele>136.985048</ele>
        <time>2026-06-28T20:16:07.741Z</time>
      </trkpt>
      <trkpt lat="51.946720" lon="7.365314">
        <ele>116.137988</ele>
        <time>2026-06-28T20:18:47.402Z</time>
      </trkpt>
      <trkpt lat="51.939020" lon="7.357794">
        <ele>114.138150</ele>
        <time>2026-06-28T20:20:56.538Z</time>
      </trkpt>
      <trkpt lat="51.935141" lon="7.358347">
        <ele>110.044285</ele>
        <time>2026-06-28T20:21:44.189Z</time>
      </trkpt>
      <trkpt lat="51.932541" lon="7.354286">
        <ele>105.855735</ele>
        <time>2026-06-28T20:22:29.018Z</time>
      </trkpt>
      <trkpt lat="51.931475" lon="7.350996">
        <ele>100.818478</ele>
        <time>2026-06-28T20:23:01.772Z</time>
      </trkpt>
      <trkpt lat="51.931556" lon="7.346242">
        <ele>106.772446</ele>
        <time>2026-06-28T20:24:21.976Z</time>
      </trkpt>
      <trkpt lat="51.932641" lon="7.341162">
        <ele>108.762716</ele>
        <time>2026-06-28T20:25:24.729Z</time>
      </trkpt>
      <trkpt lat="51.932918" lon="7.339455">
        <ele>108.158197</ele>
        <time>2026-06-28T20:25:48.882Z</time>
      </trkpt>
      <trkpt lat="51.931605" lon="7.320405">
        <ele>106.872581</ele>
        <time>2026-06-28T20:28:52.305Z</time>
      </trkpt>
      <trkpt lat="51.930665" lon="7.314466">
        <ele>101.923912</ele>
        <time>2026-06-28T20:29:55.977Z</time>
      </trkpt>
      <trkpt lat="51.929977" lon="7.309878">
        <ele>103.454016</ele>
        <time>2026-06-28T20:30:48.689Z</time>
      </trkpt>
      <trkpt lat="51.930240" lon="7.302053">
        <ele>101.757398</ele>
        <time>2026-06-28T20:31:57.874Z</time>
      </trkpt>
      <trkpt lat="51.929441" lon="7.296865">
        <ele>101.250756</ele>
        <time>2026-06-28T20:32:47.644Z</time>
      </trkpt>
      <trkpt lat="51.926649" lon="7.293318">
        <ele>105.468581</ele>
        <time>2026-06-28T20:33:59.369Z</time>
      </trkpt>
      <trkpt lat="51.925764" lon="7.292273">
        <ele>107.602011</ele>
        <time>2026-06-28T20:34:26.742Z</time>
      </trkpt>
      <trkpt lat="51.921351" lon="7.291215">
        <ele>112.258995</ele>
        <time>2026-06-28T20:35:56.756Z</time>
      </trkpt>
      <trkpt lat="51.916796" lon="7.281335">
        <ele>97.350297</ele>
        <time>2026-06-28T20:37:35.729Z</time>
      </trkpt>
      <trkpt lat="51.912410" lon="7.278332">
        <ele>96.313405</ele>
        <time>2026-06-28T20:38:53.812Z</time>
      </trkpt>
      <trkpt lat="51.909502" lon="7.271111">
        <ele>95.009932</ele>
        <time>2026-06-28T20:40:18.836Z</time>
      </trkpt>
      <trkpt lat="51.903862" lon="7.248076">
        <ele>84.464163</ele>
        <time>2026-06-28T20:43:38.810Z</time>
      </trkpt>
      <trkpt lat="51.899439" lon="7.238659">
        <ele>80.815903</ele>
        <time>2026-06-28T20:45:22.946Z</time>
      </trkpt>
      <trkpt lat="51.895633" lon="7.218054">
        <ele>81.161624</ele>
        <time>2026-06-28T20:48:48.285Z</time>
      </trkpt>
      <trkpt lat="51.892905" lon="7.206968">
        <ele>85.346499</ele>
        <time>2026-06-28T20:51:06.997Z</time>
      </trkpt>
      <trkpt lat="51.898214" lon="7.201376">
        <ele>85.196667</ele>
        <time>2026-06-28T20:53:39.313Z</time>
      </trkpt>
      <trkpt lat="51.899156" lon="7.196691">
        <ele>82.930817</ele>
        <time>2026-06-28T20:54:30.527Z</time>
      </trkpt>
      <trkpt lat="51.900251" lon="7.193756">
        <ele>81.093124</ele>
        <time>2026-06-28T20:55:08.144Z</time>
      </trkpt>
      <trkpt lat="51.897850" lon="7.189448">
        <ele>78.676174</ele>
        <time>2026-06-28T20:56:13.399Z</time>
      </trkpt>
      <trkpt lat="51.896288" lon="7.184975">
        <ele>76.032215</ele>
        <time>2026-06-28T20:57:22.057Z</time>
      </trkpt>
      <trkpt lat="51.896737" lon="7.177764">
        <ele>74.152985</ele>
        <time>2026-06-28T20:58:55.377Z</time>
      </trkpt>
      <trkpt lat="51.892713" lon="7.160652">
        <ele>73.568861</ele>
        <time>2026-06-28T21:02:46.288Z</time>
      </trkpt>
      <trkpt lat="51.887318" lon="7.144133">
        <ele>65.636556</ele>
        <time>2026-06-28T21:06:26.269Z</time>
      </trkpt>
      <trkpt lat="51.878833" lon="7.124608">
        <ele>65.284502</ele>
        <time>2026-06-28T21:11:32.678Z</time>
      </trkpt>
      <trkpt lat="51.867217" lon="7.108882">
        <ele>60.707723</ele>
        <time>2026-06-28T21:19:22.746Z</time>
      </trkpt>
      <trkpt lat="51.861764" lon="7.105033">
        <ele>59.181800</ele>
        <time>2026-06-28T21:20:56.842Z</time>
      </trkpt>
      <trkpt lat="51.859609" lon="7.085706">
        <ele>58.629116</ele>
        <time>2026-06-28T21:24:00.502Z</time>
      </trkpt>
      <trkpt lat="51.855524" lon="7.076695">
        <ele>60.400644</ele>
        <time>2026-06-28T21:25:52.632Z</time>
      </trkpt>
      <trkpt lat="51.854767" lon="7.066746">
        <ele>62.784983</ele>
        <time>2026-06-28T21:27:37.350Z</time>
      </trkpt>
      <trkpt lat="51.854504" lon="7.049368">
        <ele>65.369095</ele>
        <time>2026-06-28T21:30:28.218Z</time>
      </trkpt>
      <trkpt lat="51.853283" lon="7.023272">
        <ele>65.712896</ele>
        <time>2026-06-28T21:34:57.209Z</time>
      </trkpt>
      <trkpt lat="51.857375" lon="6.995902">
        <ele>67.389878</ele>
        <time>2026-06-28T21:40:39.078Z</time>
      </trkpt>
      <trkpt lat="51.856669" lon="6.976130">
        <ele>68.584520</ele>
        <time>2026-06-28T21:45:00.046Z</time>
      </trkpt>
      <trkpt lat="51.852408" lon="6.965464">
        <ele>74.085447</ele>
        <time>2026-06-28T21:47:22.959Z</time>
      </trkpt>
      <trkpt lat="51.851402" lon="6.946437">
        <ele>72.782021</ele>
        <time>2026-06-28T21:50:52.838Z</time>
      </trkpt>
      <trkpt lat="51.843541" lon="6.915926">
        <ele>66.623076</ele>
        <time>2026-06-28T21:55:42.327Z</time>
      </trkpt>
      <trkpt lat="51.838158" lon="6.891877">
        <ele>53.493326</ele>
        <time>2026-06-28T22:00:12.509Z</time>
      </trkpt>
      <trkpt lat="51.840035" lon="6.883623">
        <ele>56.614239</ele>
        <time>2026-06-28T22:02:03.814Z</time>
      </trkpt>
      <trkpt lat="51.839442" lon="6.875118">
        <ele>52.055347</ele>
        <time>2026-06-28T22:03:12.491Z</time>
      </trkpt>
      <trkpt lat="51.840465" lon="6.869609">
        <ele>49.546082</ele>
        <time>2026-06-28T22:04:19.945Z</time>
      </trkpt>
      <trkpt lat="51.840303" lon="6.867773">
        <ele>48.694115</ele>
        <time>2026-06-28T22:04:49.130Z</time>
      </trkpt>
      <trkpt lat="51.837656" lon="6.862904">
        <ele>47.618042</ele>
        <time>2026-06-28T22:06:06.587Z</time>
      </trkpt>
      <trkpt lat="51.836799" lon="6.860809">
        <ele>48.136248</ele>
        <time>2026-06-28T22:07:48.372Z</time>
      </trkpt>
      <trkpt lat="51.835948" lon="6.857174">
        <ele>49.415484</ele>
        <time>2026-06-28T22:09:19.550Z</time>
      </trkpt>
      <trkpt lat="51.833715" lon="6.856314">
        <ele>48.964313</ele>
        <time>2026-06-28T22:09:52.805Z</time>
      </trkpt>
      <trkpt lat="51.825920" lon="6.851423">
        <ele>49.075546</ele>
        <time>2026-06-28T22:12:02.261Z</time>
      </trkpt>
      <trkpt lat="51.815736" lon="6.849398">
        <ele>49.856875</ele>
        <time>2026-06-28T22:14:38.457Z</time>
      </trkpt>
      <trkpt lat="51.806300" lon="6.846680">
        <ele>52.769046</ele>
        <time>2026-06-28T22:17:13.451Z</time>
      </trkpt>
      <trkpt lat="51.791331" lon="6.842860">
        <ele>56.000997</ele>
        <time>2026-06-28T22:21:15.050Z</time>
      </trkpt>
      <trkpt lat="51.783278" lon="6.842109">
        <ele>54.136936</ele>
        <time>2026-06-28T22:23:15.439Z</time>
      </trkpt>
      <trkpt lat="51.777942" lon="6.837712">
        <ele>61.585503</ele>
        <time>2026-06-28T22:25:15.429Z</time>
      </trkpt>
      <trkpt lat="51.773297" lon="6.838160">
        <ele>62.249392</ele>
        <time>2026-06-28T22:26:27.793Z</time>
      </trkpt>
      <trkpt lat="51.770371" lon="6.833251">
        <ele>61.629006</ele>
        <time>2026-06-28T22:27:41.079Z</time>
      </trkpt>
      <trkpt lat="51.767094" lon="6.829087">
        <ele>57.283513</ele>
        <time>2026-06-28T22:28:33.567Z</time>
      </trkpt>
      <trkpt lat="51.765035" lon="6.816348">
        <ele>55.064816</ele>
        <time>2026-06-28T22:30:33.494Z</time>
      </trkpt>
      <trkpt lat="51.759677" lon="6.803617">
        <ele>46.525037</ele>
        <time>2026-06-28T22:33:15.315Z</time>
      </trkpt>
      <trkpt lat="51.752542" lon="6.802696">
        <ele>44.029464</ele>
        <time>2026-06-28T22:35:38.676Z</time>
      </trkpt>
      <trkpt lat="51.746625" lon="6.793247">
        <ele>38.794830</ele>
        <time>2026-06-28T22:37:48.825Z</time>
      </trkpt>
      <trkpt lat="51.742740" lon="6.785589">
        <ele>43.080228</ele>
        <time>2026-06-28T22:39:42.949Z</time>
      </trkpt>
      <trkpt lat="51.738668" lon="6.776003">
        <ele>35.600832</ele>
        <time>2026-06-28T22:41:11.594Z</time>
      </trkpt>
      <trkpt lat="51.730189" lon="6.757052">
        <ele>34.572190</ele>
        <time>2026-06-28T22:44:51.154Z</time>
      </trkpt>
      <trkpt lat="51.728990" lon="6.739010">
        <ele>32.337055</ele>
        <time>2026-06-28T22:47:35.968Z</time>
      </trkpt>
      <trkpt lat="51.724065" lon="6.728518">
        <ele>32.408126</ele>
        <time>2026-06-28T22:49:46.661Z</time>
      </trkpt>
      <trkpt lat="51.716947" lon="6.721307">
        <ele>36.596512</ele>
        <time>2026-06-28T22:52:13.903Z</time>
      </trkpt>
      <trkpt lat="51.714862" lon="6.717598">
        <ele>40.446712</ele>
        <time>2026-06-28T22:53:24.684Z</time>
      </trkpt>
      <trkpt lat="51.708666" lon="6.712754">
        <ele>42.878123</ele>
        <time>2026-06-28T22:55:34.804Z</time>
      </trkpt>
      <trkpt lat="51.698112" lon="6.695550">
        <ele>27.440864</ele>
        <time>2026-06-28T22:58:52.620Z</time>
      </trkpt>
      <trkpt lat="51.685489" lon="6.684116">
        <ele>25.461025</ele>
        <time>2026-06-28T23:02:26.753Z</time>
      </trkpt>
      <trkpt lat="51.676000" lon="6.668168">
        <ele>23.594527</ele>
        <time>2026-06-28T23:05:56.169Z</time>
      </trkpt>
      <trkpt lat="51.672549" lon="6.649116">
        <ele>25.242901</ele>
        <time>2026-06-28T23:09:06.940Z</time>
      </trkpt>
      <trkpt lat="51.675659" lon="6.647235">
        <ele>24.798390</ele>
        <time>2026-06-28T23:09:59.769Z</time>
      </trkpt>
      <trkpt lat="51.673493" lon="6.641233">
        <ele>26.233836</ele>
        <time>2026-06-28T23:11:16.580Z</time>
      </trkpt>
      <trkpt lat="51.673824" lon="6.634341">
        <ele>25.798104</ele>
        <time>2026-06-28T23:12:29.388Z</time>
      </trkpt>
      <trkpt lat="51.675315" lon="6.629434">
        <ele>25.940278</ele>
        <time>2026-06-28T23:13:26.024Z</time>
      </trkpt>
      <trkpt lat="51.671834" lon="6.620080">
        <ele>25.355379</ele>
        <time>2026-06-28T23:15:05.236Z</time>
      </trkpt>
      <trkpt lat="51.669904" lon="6.613437">
        <ele>23.489539</ele>
        <time>2026-06-28T23:16:09.286Z</time>
      </trkpt>
      <trkpt lat="51.668608" lon="6.606024">
        <ele>19.445707</ele>
        <time>2026-06-28T23:17:10.565Z</time>
      </trkpt>
      <trkpt lat="51.664741" lon="6.599632">
        <ele>20.476584</ele>
        <time>2026-06-28T23:18:40.387Z</time>
      </trkpt>
      <trkpt lat="51.664756" lon="6.591522">
        <ele>20.712958</ele>
        <time>2026-06-28T23:20:07.554Z</time>
      </trkpt>
      <trkpt lat="51.664817" lon="6.586602">
        <ele>20.893997</ele>
        <time>2026-06-28T23:21:00.890Z</time>
      </trkpt>
      <trkpt lat="51.668766" lon="6.573880">
        <ele>20.181097</ele>
        <time>2026-06-28T23:23:12.675Z</time>
      </trkpt>
      <trkpt lat="51.672555" lon="6.561935">
        <ele>19.183830</ele>
        <time>2026-06-28T23:25:13.034Z</time>
      </trkpt>
      <trkpt lat="51.670755" lon="6.557304">
        <ele>19.566607</ele>
        <time>2026-06-28T23:26:18.302Z</time>
      </trkpt>
      <trkpt lat="51.671536" lon="6.552673">
        <ele>19.974661</ele>
        <time>2026-06-28T23:27:09.688Z</time>
      </trkpt>
      <trkpt lat="51.672510" lon="6.540007">
        <ele>25.443426</ele>
        <time>2026-06-28T23:29:33.281Z</time>
      </trkpt>
      <trkpt lat="51.674889" lon="6.523511">
        <ele>19.483059</ele>
        <time>2026-06-28T23:31:59.041Z</time>
      </trkpt>
      <trkpt lat="51.673756" lon="6.518340">
        <ele>19.100024</ele>
        <time>2026-06-28T23:32:54.722Z</time>
      </trkpt>
      <trkpt lat="51.669808" lon="6.509025">
        <ele>18.655253</ele>
        <time>2026-06-28T23:34:45.121Z</time>
      </trkpt>
      <trkpt lat="51.667135" lon="6.500177">
        <ele>18.641306</ele>
        <time>2026-06-28T23:36:22.928Z</time>
      </trkpt>
      <trkpt lat="51.667764" lon="6.486159">
        <ele>16.408623</ele>
        <time>2026-06-28T23:38:44.834Z</time>
      </trkpt>
      <trkpt lat="51.664414" lon="6.480817">
        <ele>13.918795</ele>
        <time>2026-06-28T23:40:40.841Z</time>
      </trkpt>
      <trkpt lat="51.659131" lon="6.472776">
        <ele>19.250084</ele>
        <time>2026-06-28T23:42:52.172Z</time>
      </trkpt>
      <trkpt lat="51.655975" lon="6.464330">
        <ele>35.300875</ele>
        <time>2026-06-28T23:45:29.089Z</time>
      </trkpt>
      <trkpt lat="51.653691" lon="6.457697">
        <ele>35.339847</ele>
        <time>2026-06-28T23:46:39.329Z</time>
      </trkpt>
      <trkpt lat="51.648578" lon="6.443903">
        <ele>33.332855</ele>
        <time>2026-06-28T23:49:10.208Z</time>
      </trkpt>
      <trkpt lat="51.643370" lon="6.427175">
        <ele>25.409727</ele>
        <time>2026-06-28T23:51:52.350Z</time>
      </trkpt>
      <trkpt lat="51.635187" lon="6.409901">
        <ele>22.179062</ele>
        <time>2026-06-28T23:55:06.430Z</time>
      </trkpt>
      <trkpt lat="51.630004" lon="6.400165">
        <ele>51.938430</ele>
        <time>2026-06-28T23:59:05.156Z</time>
      </trkpt>
      <trkpt lat="51.625801" lon="6.390852">
        <ele>65.890013</ele>
        <time>2026-06-29T00:01:53.399Z</time>
      </trkpt>
      <trkpt lat="51.629502" lon="6.385774">
        <ele>66.289648</ele>
        <time>2026-06-29T00:03:30.969Z</time>
      </trkpt>
      <trkpt lat="51.629942" lon="6.377034">
        <ele>60.047177</ele>
        <time>2026-06-29T00:04:45.464Z</time>
      </trkpt>
      <trkpt lat="51.629422" lon="6.362941">
        <ele>57.617437</ele>
        <time>2026-06-29T00:07:04.136Z</time>
      </trkpt>
      <trkpt lat="51.627033" lon="6.347766">
        <ele>33.008588</ele>
        <time>2026-06-29T00:08:48.120Z</time>
      </trkpt>
      <trkpt lat="51.625879" lon="6.337212">
        <ele>26.662086</ele>
        <time>2026-06-29T00:10:27.874Z</time>
      </trkpt>
      <trkpt lat="51.619320" lon="6.330525">
        <ele>22.299313</ele>
        <time>2026-06-29T00:12:21.565Z</time>
      </trkpt>
      <trkpt lat="51.616095" lon="6.324192">
        <ele>20.637518</ele>
        <time>2026-06-29T00:13:35.376Z</time>
      </trkpt>
      <trkpt lat="51.612535" lon="6.319515">
        <ele>20.944750</ele>
        <time>2026-06-29T00:14:49.775Z</time>
      </trkpt>
      <trkpt lat="51.610949" lon="6.308609">
        <ele>20.800568</ele>
        <time>2026-06-29T00:16:34.712Z</time>
      </trkpt>
      <trkpt lat="51.607660" lon="6.298523">
        <ele>20.316344</ele>
        <time>2026-06-29T00:18:21.978Z</time>
      </trkpt>
      <trkpt lat="51.602989" lon="6.291107">
        <ele>20.321667</ele>
        <time>2026-06-29T00:20:07.331Z</time>
      </trkpt>
      <trkpt lat="51.598770" lon="6.287149">
        <ele>22.068504</ele>
        <time>2026-06-29T00:21:31.880Z</time>
      </trkpt>
      <trkpt lat="51.598939" lon="6.282255">
        <ele>21.395072</ele>
        <time>2026-06-29T00:22:26.367Z</time>
      </trkpt>
      <trkpt lat="51.596342" lon="6.273887">
        <ele>21.825827</ele>
        <time>2026-06-29T00:23:56.791Z</time>
      </trkpt>
      <trkpt lat="51.590543" lon="6.256092">
        <ele>20.813674</ele>
        <time>2026-06-29T00:27:01.826Z</time>
      </trkpt>
      <trkpt lat="51.587988" lon="6.253661">
        <ele>20.839468</ele>
        <time>2026-06-29T00:27:47.511Z</time>
      </trkpt>
      <trkpt lat="51.584135" lon="6.251430">
        <ele>22.870459</ele>
        <time>2026-06-29T00:28:57.907Z</time>
      </trkpt>
      <trkpt lat="51.581317" lon="6.246343">
        <ele>22.348756</ele>
        <time>2026-06-29T00:30:08.118Z</time>
      </trkpt>
      <trkpt lat="51.578652" lon="6.242323">
        <ele>21.653215</ele>
        <time>2026-06-29T00:31:15.211Z</time>
      </trkpt>
      <trkpt lat="51.577375" lon="6.238327">
        <ele>20.143763</ele>
        <time>2026-06-29T00:31:51.762Z</time>
      </trkpt>
      <trkpt lat="51.574978" lon="6.237325">
        <ele>20.694519</ele>
        <time>2026-06-29T00:32:34.321Z</time>
      </trkpt>
      <trkpt lat="51.570060" lon="6.231554">
        <ele>20.602545</ele>
        <time>2026-06-29T00:34:05.064Z</time>
      </trkpt>
      <trkpt lat="51.563322" lon="6.219372">
        <ele>22.163795</ele>
        <time>2026-06-29T00:36:54.431Z</time>
      </trkpt>
      <trkpt lat="51.558154" lon="6.209747">
        <ele>23.661608</ele>
        <time>2026-06-29T00:38:57.269Z</time>
      </trkpt>
      <trkpt lat="51.556803" lon="6.207744">
        <ele>27.252006</ele>
        <time>2026-06-29T00:39:49.125Z</time>
      </trkpt>
      <trkpt lat="51.553653" lon="6.213219">
        <ele>27.975633</ele>
        <time>2026-06-29T00:41:01.169Z</time>
      </trkpt>
      <trkpt lat="51.550676" lon="6.214005">
        <ele>27.618153</ele>
        <time>2026-06-29T00:41:54.039Z</time>
      </trkpt>
      <trkpt lat="51.547677" lon="6.210986">
        <ele>26.462662</ele>
        <time>2026-06-29T00:42:58.950Z</time>
      </trkpt>
      <trkpt lat="51.540578" lon="6.203597">
        <ele>26.526723</ele>
        <time>2026-06-29T00:45:08.188Z</time>
      </trkpt>
      <trkpt lat="51.530124" lon="6.194273">
        <ele>24.844109</ele>
        <time>2026-06-29T00:48:01.453Z</time>
      </trkpt>
      <trkpt lat="51.522337" lon="6.186062">
        <ele>20.545732</ele>
        <time>2026-06-29T00:50:07.896Z</time>
      </trkpt>
      <trkpt lat="51.507791" lon="6.170861">
        <ele>18.107897</ele>
        <time>2026-06-29T00:54:40.506Z</time>
      </trkpt>
      <trkpt lat="51.506464" lon="6.170234">
        <ele>16.768414</ele>
        <time>2026-06-29T00:55:09.508Z</time>
      </trkpt>
      <trkpt lat="51.495097" lon="6.177768">
        <ele>14.780667</ele>
        <time>2026-06-29T00:58:08.864Z</time>
      </trkpt>
      <trkpt lat="51.488264" lon="6.177159">
        <ele>15.169828</ele>
        <time>2026-06-29T00:59:58.041Z</time>
      </trkpt>
      <trkpt lat="51.475563" lon="6.178954">
        <ele>16.547135</ele>
        <time>2026-06-29T01:03:18.817Z</time>
      </trkpt>
      <trkpt lat="51.472693" lon="6.179900">
        <ele>16.397391</ele>
        <time>2026-06-29T01:04:18.357Z</time>
      </trkpt>
      <trkpt lat="51.470931" lon="6.183106">
        <ele>15.999956</ele>
        <time>2026-06-29T01:05:02.448Z</time>
      </trkpt>
      <trkpt lat="51.464078" lon="6.181957">
        <ele>17.456815</ele>
        <time>2026-06-29T01:06:56.200Z</time>
      </trkpt>
      <trkpt lat="51.457949" lon="6.176494">
        <ele>18.143676</ele>
        <time>2026-06-29T01:09:23.362Z</time>
      </trkpt>
      <trkpt lat="51.448068" lon="6.173878">
        <ele>17.898449</ele>
        <time>2026-06-29T01:11:53.892Z</time>
      </trkpt>
      <trkpt lat="51.439852" lon="6.171885">
        <ele>19.517494</ele>
        <time>2026-06-29T01:14:04.062Z</time>
      </trkpt>
      <trkpt lat="51.437173" lon="6.171473">
        <ele>18.171525</ele>
        <time>2026-06-29T01:15:11.427Z</time>
      </trkpt>
      <trkpt lat="51.436242" lon="6.164460">
        <ele>15.993584</ele>
        <time>2026-06-29T01:16:37.794Z</time>
      </trkpt>
      <trkpt lat="51.426055" lon="6.161498">
        <ele>16.475934</ele>
        <time>2026-06-29T01:20:13.957Z</time>
      </trkpt>
      <trkpt lat="51.422045" lon="6.159780">
        <ele>13.941055</ele>
        <time>2026-06-29T01:21:16.925Z</time>
      </trkpt>
      <trkpt lat="51.417395" lon="6.158077">
        <ele>15.938479</ele>
        <time>2026-06-29T01:22:41.814Z</time>
      </trkpt>
      <trkpt lat="51.413154" lon="6.158273">
        <ele>16.994630</ele>
        <time>2026-06-29T01:24:14.264Z</time>
      </trkpt>
      <trkpt lat="51.408530" lon="6.156910">
        <ele>17.136378</ele>
        <time>2026-06-29T01:25:26.029Z</time>
      </trkpt>
      <trkpt lat="51.404024" lon="6.160557">
        <ele>17.072337</ele>
        <time>2026-06-29T01:27:06.147Z</time>
      </trkpt>
      <trkpt lat="51.398831" lon="6.158967">
        <ele>17.018056</ele>
        <time>2026-06-29T01:28:24.906Z</time>
      </trkpt>
      <trkpt lat="51.396204" lon="6.164701">
        <ele>20.638620</ele>
        <time>2026-06-29T01:30:11.420Z</time>
      </trkpt>
      <trkpt lat="51.389925" lon="6.167381">
        <ele>21.857512</ele>
        <time>2026-06-29T01:32:00.460Z</time>
      </trkpt>
      <trkpt lat="51.383534" lon="6.168261">
        <ele>21.625257</ele>
        <time>2026-06-29T01:34:01.461Z</time>
      </trkpt>
      <trkpt lat="51.379258" lon="6.169909">
        <ele>23.313200</ele>
        <time>2026-06-29T01:35:52.467Z</time>
      </trkpt>
      <trkpt lat="51.375464" lon="6.168969">
        <ele>18.915244</ele>
        <time>2026-06-29T01:37:06.179Z</time>
      </trkpt>
      <trkpt lat="51.372987" lon="6.168438">
        <ele>17.800389</ele>
        <time>2026-06-29T01:37:46.493Z</time>
      </trkpt>
      <trkpt lat="51.370713" lon="6.165830">
        <ele>15.006828</ele>
        <time>2026-06-29T01:38:37.657Z</time>
      </trkpt>
      <trkpt lat="51.366885" lon="6.162280">
        <ele>16.889364</ele>
        <time>2026-06-29T01:39:58.191Z</time>
      </trkpt>
      <trkpt lat="51.363487" lon="6.158064">
        <ele>17.235723</ele>
        <time>2026-06-29T01:41:05.642Z</time>
      </trkpt>
      <trkpt lat="51.359639" lon="6.155865">
        <ele>18.066852</ele>
        <time>2026-06-29T01:42:12.410Z</time>
      </trkpt>
      <trkpt lat="51.355999" lon="6.154524">
        <ele>18.438898</ele>
        <time>2026-06-29T01:43:24.822Z</time>
      </trkpt>
      <trkpt lat="51.352114" lon="6.149166">
        <ele>18.280392</ele>
        <time>2026-06-29T01:45:02.747Z</time>
      </trkpt>
      <trkpt lat="51.348363" lon="6.144193">
        <ele>19.570244</ele>
        <time>2026-06-29T01:46:46.335Z</time>
      </trkpt>
      <trkpt lat="51.344055" lon="6.137761">
        <ele>21.089253</ele>
        <time>2026-06-29T01:48:52.649Z</time>
      </trkpt>
      <trkpt lat="51.340557" lon="6.134043">
        <ele>21.887721</ele>
        <time>2026-06-29T01:50:21.731Z</time>
      </trkpt>
      <trkpt lat="51.337068" lon="6.130724">
        <ele>21.321591</ele>
        <time>2026-06-29T01:52:42.778Z</time>
      </trkpt>
      <trkpt lat="51.330266" lon="6.124345">
        <ele>23.555939</ele>
        <time>2026-06-29T01:55:34.628Z</time>
      </trkpt>
      <trkpt lat="51.325171" lon="6.121086">
        <ele>22.761096</ele>
        <time>2026-06-29T01:57:28.886Z</time>
      </trkpt>
      <trkpt lat="51.312298" lon="6.109505">
        <ele>20.565125</ele>
        <time>2026-06-29T02:02:21.361Z</time>
      </trkpt>
      <trkpt lat="51.302066" lon="6.096508">
        <ele>19.866552</ele>
        <time>2026-06-29T02:06:49.183Z</time>
      </trkpt>
      <trkpt lat="51.292725" lon="6.084561">
        <ele>24.902631</ele>
        <time>2026-06-29T02:11:17.837Z</time>
      </trkpt>
      <trkpt lat="51.287273" lon="6.080673">
        <ele>25.225614</ele>
        <time>2026-06-29T02:13:18.298Z</time>
      </trkpt>
      <trkpt lat="51.283167" lon="6.078146">
        <ele>25.678932</ele>
        <time>2026-06-29T02:14:30.005Z</time>
      </trkpt>
      <trkpt lat="51.277068" lon="6.075479">
        <ele>24.514818</ele>
        <time>2026-06-29T02:16:01.443Z</time>
      </trkpt>
      <trkpt lat="51.267120" lon="6.069091">
        <ele>26.200005</ele>
        <time>2026-06-29T02:18:49.168Z</time>
      </trkpt>
      <trkpt lat="51.262876" lon="6.067728">
        <ele>24.889579</ele>
        <time>2026-06-29T02:19:52.268Z</time>
      </trkpt>
      <trkpt lat="51.255117" lon="6.061982">
        <ele>26.560361</ele>
        <time>2026-06-29T02:22:09.594Z</time>
      </trkpt>
      <trkpt lat="51.243270" lon="6.050362">
        <ele>25.694329</ele>
        <time>2026-06-29T02:25:33.308Z</time>
      </trkpt>
      <trkpt lat="51.238239" lon="6.044672">
        <ele>26.548203</ele>
        <time>2026-06-29T02:27:27.609Z</time>
      </trkpt>
      <trkpt lat="51.232234" lon="6.038791">
        <ele>23.797036</ele>
        <time>2026-06-29T02:29:42.701Z</time>
      </trkpt>
      <trkpt lat="51.230218" lon="6.036326">
        <ele>23.664406</ele>
        <time>2026-06-29T02:30:26.684Z</time>
      </trkpt>
      <trkpt lat="51.228745" lon="6.033078">
        <ele>24.335605</ele>
        <time>2026-06-29T02:31:14.037Z</time>
      </trkpt>
      <trkpt lat="51.227599" lon="6.031685">
        <ele>23.281661</ele>
        <time>2026-06-29T02:31:43.499Z</time>
      </trkpt>
      <trkpt lat="51.218691" lon="6.021995">
        <ele>23.224291</ele>
        <time>2026-06-29T02:35:12.784Z</time>
      </trkpt>
      <trkpt lat="51.212864" lon="6.016318">
        <ele>23.709866</ele>
        <time>2026-06-29T02:37:24.053Z</time>
      </trkpt>
      <trkpt lat="51.206105" lon="6.008151">
        <ele>24.563243</ele>
        <time>2026-06-29T02:40:23.353Z</time>
      </trkpt>
      <trkpt lat="51.202946" lon="6.004512">
        <ele>25.917484</ele>
        <time>2026-06-29T02:41:48.761Z</time>
      </trkpt>
      <trkpt lat="51.199843" lon="5.997837">
        <ele>26.045043</ele>
        <time>2026-06-29T02:43:40.084Z</time>
      </trkpt>
      <trkpt lat="51.197557" lon="5.992833">
        <ele>28.268202</ele>
        <time>2026-06-29T02:44:54.983Z</time>
      </trkpt>
      <trkpt lat="51.193206" lon="5.992909">
        <ele>28.006628</ele>
        <time>2026-06-29T02:46:25.463Z</time>
      </trkpt>
      <trkpt lat="51.192574" lon="5.993549">
        <ele>28.006628</ele>
        <time>2026-06-29T02:46:57.466Z</time>
      </trkpt>
    </trkseg>
  </trk>
</gpx>
